<?xml version="1.0" encoding="UTF-8" standalone="no" ?>
<gpx version="1.1" creator="Visorando" xmlns:xsi="http://www.w3.org/2001/XMLSchema-instance" xmlns="http://www.topografix.com/GPX/1/1" xsi:schemaLocation="http://www.topografix.com/GPX/1/1 http://www.topografix.com/GPX/1/1/gpx.xsd">
<metadata>
  <name>Calanques de Sugiton et de Morgiou</name>
  <link href="https://www.visorando.com/randonnee-calanques-de-sugiton-et-de-morgiou/">
    <text>https://www.visorando.com/randonnee-calanques-de-sugiton-et-de-morgiou/</text>
  </link>
</metadata><wpt lat="43.230528" lon="5.436325">
  <ele>139</ele>
  <time>2026-09-20T12:54:24.000Z</time>
  <name>Parking université de Luminy</name>
  <type>GENERIC</type>
</wpt><wpt lat="43.220087" lon="5.443036">
  <ele>190</ele>
  <time>2026-09-20T13:26:59.000Z</time>
  <name>Carrefour chemins itinéraire bleu</name>
  <type>GENERIC</type>
</wpt><wpt lat="43.218762" lon="5.447215">
  <ele>215</ele>
  <time>2026-09-20T13:37:58.000Z</time>
  <name>Embranchement </name>
  <type>GENERIC</type>
</wpt><wpt lat="43.217753" lon="5.447022">
  <ele>211</ele>
  <time>2026-09-20T13:39:57.000Z</time>
  <name>Itineraire pointillé rouge 6B</name>
  <type>GENERIC</type>
</wpt><wpt lat="43.217706" lon="5.447483">
  <ele>187</ele>
  <time>2026-09-20T13:41:35.000Z</time>
  <name>Piste à droite</name>
  <type>GENERIC</type>
</wpt><wpt lat="43.21217" lon="5.454532">
  <ele>19</ele>
  <time>2026-09-20T14:03:11.000Z</time>
  <name>Calanque du Sugiton</name>
  <type>GENERIC</type>
</wpt><wpt lat="43.212733" lon="5.444619">
  <ele>12</ele>
  <time>2026-09-20T14:37:56.000Z</time>
  <name>Calanque de Morgiou</name>
  <type>GENERIC</type>
</wpt><wpt lat="43.216069" lon="5.437618">
  <ele>22</ele>
  <time>2026-09-20T14:54:10.000Z</time>
  <name>Itinéraire jaune 7</name>
  <type>GENERIC</type>
</wpt><wpt lat="43.218534" lon="5.441343">
  <ele>156</ele>
  <time>2026-09-20T15:30:46.000Z</time>
  <name>Itinéraire jaune pointillé 6a</name>
  <type>GENERIC</type>
</wpt><wpt lat="43.230442" lon="5.436411">
  <ele>139</ele>
  <time>2026-09-20T16:07:10.000Z</time>
  <name>Parking université de Luminy</name>
  <type>GENERIC</type>
</wpt><trk>
  <name>Calanques de Sugiton et de Morgiou</name>
  <trkseg>
    <trkpt lat="43.230528" lon="5.436325">
      <ele>139</ele>
      <time>2026-09-20T12:54:24.000Z</time>
    </trkpt>
    <trkpt lat="43.230442" lon="5.43684">
      <ele>140</ele>
      <time>2026-09-20T12:55:18.000Z</time>
    </trkpt>
    <trkpt lat="43.22982" lon="5.436985">
      <ele>144</ele>
      <time>2026-09-20T12:57:11.000Z</time>
    </trkpt>
    <trkpt lat="43.229214" lon="5.437075">
      <ele>148</ele>
      <time>2026-09-20T12:59:02.000Z</time>
    </trkpt>
    <trkpt lat="43.227331" lon="5.437294">
      <ele>160</ele>
      <time>2026-09-20T13:04:42.000Z</time>
    </trkpt>
    <trkpt lat="43.226431" lon="5.437905">
      <ele>165</ele>
      <time>2026-09-20T13:07:28.000Z</time>
    </trkpt>
    <trkpt lat="43.225446" lon="5.438149">
      <ele>164</ele>
      <time>2026-09-20T13:09:23.000Z</time>
    </trkpt>
    <trkpt lat="43.224649" lon="5.438096">
      <ele>164</ele>
      <time>2026-09-20T13:10:54.000Z</time>
    </trkpt>
    <trkpt lat="43.223573" lon="5.438785">
      <ele>165</ele>
      <time>2026-09-20T13:13:20.000Z</time>
    </trkpt>
    <trkpt lat="43.222984" lon="5.439533">
      <ele>168</ele>
      <time>2026-09-20T13:15:23.000Z</time>
    </trkpt>
    <trkpt lat="43.222304" lon="5.439973">
      <ele>171</ele>
      <time>2026-09-20T13:17:20.000Z</time>
    </trkpt>
    <trkpt lat="43.221537" lon="5.440306">
      <ele>175</ele>
      <time>2026-09-20T13:19:33.000Z</time>
    </trkpt>
    <trkpt lat="43.221237" lon="5.440631">
      <ele>178</ele>
      <time>2026-09-20T13:20:48.000Z</time>
    </trkpt>
    <trkpt lat="43.220881" lon="5.440906">
      <ele>179</ele>
      <time>2026-09-20T13:21:45.000Z</time>
    </trkpt>
    <trkpt lat="43.220537" lon="5.441743">
      <ele>183</ele>
      <time>2026-09-20T13:23:46.000Z</time>
    </trkpt>
    <trkpt lat="43.220353" lon="5.4425">
      <ele>187</ele>
      <time>2026-09-20T13:25:34.000Z</time>
    </trkpt>
    <trkpt lat="43.220087" lon="5.443036">
      <ele>190</ele>
      <time>2026-09-20T13:26:59.000Z</time>
    </trkpt>
    <trkpt lat="43.219837" lon="5.443594">
      <ele>193</ele>
      <time>2026-09-20T13:28:25.000Z</time>
    </trkpt>
    <trkpt lat="43.219374" lon="5.444211">
      <ele>197</ele>
      <time>2026-09-20T13:30:20.000Z</time>
    </trkpt>
    <trkpt lat="43.219176" lon="5.444887">
      <ele>201</ele>
      <time>2026-09-20T13:32:02.000Z</time>
    </trkpt>
    <trkpt lat="43.219286" lon="5.445606">
      <ele>205</ele>
      <time>2026-09-20T13:33:44.000Z</time>
    </trkpt>
    <trkpt lat="43.218923" lon="5.446205">
      <ele>209</ele>
      <time>2026-09-20T13:35:30.000Z</time>
    </trkpt>
    <trkpt lat="43.218762" lon="5.447215">
      <ele>215</ele>
      <time>2026-09-20T13:37:58.000Z</time>
    </trkpt>
    <trkpt lat="43.218277" lon="5.44699">
      <ele>215</ele>
      <time>2026-09-20T13:38:57.000Z</time>
    </trkpt>
    <trkpt lat="43.217753" lon="5.447022">
      <ele>211</ele>
      <time>2026-09-20T13:39:57.000Z</time>
    </trkpt>
    <trkpt lat="43.21791" lon="5.447258">
      <ele>200</ele>
      <time>2026-09-20T13:40:24.000Z</time>
    </trkpt>
    <trkpt lat="43.217526" lon="5.447279">
      <ele>195</ele>
      <time>2026-09-20T13:41:08.000Z</time>
    </trkpt>
    <trkpt lat="43.217706" lon="5.447483">
      <ele>187</ele>
      <time>2026-09-20T13:41:35.000Z</time>
    </trkpt>
    <trkpt lat="43.217128" lon="5.44744">
      <ele>180</ele>
      <time>2026-09-20T13:42:41.000Z</time>
    </trkpt>
    <trkpt lat="43.217583" lon="5.447768">
      <ele>178</ele>
      <time>2026-09-20T13:43:40.000Z</time>
    </trkpt>
    <trkpt lat="43.21694" lon="5.44778">
      <ele>169</ele>
      <time>2026-09-20T13:44:54.000Z</time>
    </trkpt>
    <trkpt lat="43.216428" lon="5.447635">
      <ele>164</ele>
      <time>2026-09-20T13:45:54.000Z</time>
    </trkpt>
    <trkpt lat="43.216127" lon="5.447397">
      <ele>160</ele>
      <time>2026-09-20T13:46:34.000Z</time>
    </trkpt>
    <trkpt lat="43.215697" lon="5.44803">
      <ele>153</ele>
      <time>2026-09-20T13:47:46.000Z</time>
    </trkpt>
    <trkpt lat="43.215807" lon="5.448505">
      <ele>151</ele>
      <time>2026-09-20T13:48:28.000Z</time>
    </trkpt>
    <trkpt lat="43.215568" lon="5.44869">
      <ele>146</ele>
      <time>2026-09-20T13:48:59.000Z</time>
    </trkpt>
    <trkpt lat="43.215443" lon="5.448933">
      <ele>145</ele>
      <time>2026-09-20T13:49:24.000Z</time>
    </trkpt>
    <trkpt lat="43.215099" lon="5.449312">
      <ele>137</ele>
      <time>2026-09-20T13:50:15.000Z</time>
    </trkpt>
    <trkpt lat="43.214766" lon="5.449253">
      <ele>135</ele>
      <time>2026-09-20T13:50:53.000Z</time>
    </trkpt>
    <trkpt lat="43.214289" lon="5.449629">
      <ele>128</ele>
      <time>2026-09-20T13:51:56.000Z</time>
    </trkpt>
    <trkpt lat="43.213926" lon="5.44957">
      <ele>124</ele>
      <time>2026-09-20T13:52:38.000Z</time>
    </trkpt>
    <trkpt lat="43.21393" lon="5.450262">
      <ele>118</ele>
      <time>2026-09-20T13:53:36.000Z</time>
    </trkpt>
    <trkpt lat="43.213601" lon="5.450831">
      <ele>112</ele>
      <time>2026-09-20T13:54:37.000Z</time>
    </trkpt>
    <trkpt lat="43.213335" lon="5.450809">
      <ele>107</ele>
      <time>2026-09-20T13:55:08.000Z</time>
    </trkpt>
    <trkpt lat="43.213195" lon="5.451013">
      <ele>104</ele>
      <time>2026-09-20T13:55:31.000Z</time>
    </trkpt>
    <trkpt lat="43.213222" lon="5.45178">
      <ele>105</ele>
      <time>2026-09-20T13:56:45.000Z</time>
    </trkpt>
    <trkpt lat="43.213317" lon="5.452423">
      <ele>91</ele>
      <time>2026-09-20T13:57:40.000Z</time>
    </trkpt>
    <trkpt lat="43.213312" lon="5.452912">
      <ele>83</ele>
      <time>2026-09-20T13:58:21.000Z</time>
    </trkpt>
    <trkpt lat="43.213101" lon="5.453459">
      <ele>70</ele>
      <time>2026-09-20T13:59:13.000Z</time>
    </trkpt>
    <trkpt lat="43.212819" lon="5.453792">
      <ele>60</ele>
      <time>2026-09-20T13:59:56.000Z</time>
    </trkpt>
    <trkpt lat="43.212632" lon="5.455176">
      <ele>46</ele>
      <time>2026-09-20T14:01:53.000Z</time>
    </trkpt>
    <trkpt lat="43.212358" lon="5.454639">
      <ele>33</ele>
      <time>2026-09-20T14:02:48.000Z</time>
    </trkpt>
    <trkpt lat="43.21217" lon="5.454532">
      <ele>19</ele>
      <time>2026-09-20T14:03:11.000Z</time>
    </trkpt>
    <trkpt lat="43.21217" lon="5.45406">
      <ele>9</ele>
      <time>2026-09-20T14:03:50.000Z</time>
    </trkpt>
    <trkpt lat="43.211533" lon="5.453776">
      <ele>40</ele>
      <time>2026-09-20T14:10:26.000Z</time>
    </trkpt>
    <trkpt lat="43.211033" lon="5.453711">
      <ele>54</ele>
      <time>2026-09-20T14:13:48.000Z</time>
    </trkpt>
    <trkpt lat="43.210751" lon="5.453518">
      <ele>52</ele>
      <time>2026-09-20T14:14:24.000Z</time>
    </trkpt>
    <trkpt lat="43.210255" lon="5.453491">
      <ele>51</ele>
      <time>2026-09-20T14:15:21.000Z</time>
    </trkpt>
    <trkpt lat="43.210309" lon="5.453212">
      <ele>52</ele>
      <time>2026-09-20T14:15:55.000Z</time>
    </trkpt>
    <trkpt lat="43.210204" lon="5.452874">
      <ele>45</ele>
      <time>2026-09-20T14:16:26.000Z</time>
    </trkpt>
    <trkpt lat="43.210187" lon="5.45239">
      <ele>38</ele>
      <time>2026-09-20T14:17:06.000Z</time>
    </trkpt>
    <trkpt lat="43.210535" lon="5.451855">
      <ele>44</ele>
      <time>2026-09-20T14:19:08.000Z</time>
    </trkpt>
    <trkpt lat="43.210678" lon="5.45125">
      <ele>54</ele>
      <time>2026-09-20T14:21:44.000Z</time>
    </trkpt>
    <trkpt lat="43.211302" lon="5.450455">
      <ele>54</ele>
      <time>2026-09-20T14:23:21.000Z</time>
    </trkpt>
    <trkpt lat="43.211007" lon="5.449954">
      <ele>56</ele>
      <time>2026-09-20T14:24:35.000Z</time>
    </trkpt>
    <trkpt lat="43.211162" lon="5.449339">
      <ele>52</ele>
      <time>2026-09-20T14:25:29.000Z</time>
    </trkpt>
    <trkpt lat="43.21088" lon="5.449007">
      <ele>56</ele>
      <time>2026-09-20T14:26:53.000Z</time>
    </trkpt>
    <trkpt lat="43.210974" lon="5.448341">
      <ele>45</ele>
      <time>2026-09-20T14:27:50.000Z</time>
    </trkpt>
    <trkpt lat="43.211271" lon="5.447773">
      <ele>28</ele>
      <time>2026-09-20T14:28:48.000Z</time>
    </trkpt>
    <trkpt lat="43.21192" lon="5.447472">
      <ele>37</ele>
      <time>2026-09-20T14:31:39.000Z</time>
    </trkpt>
    <trkpt lat="43.2121" lon="5.44685">
      <ele>42</ele>
      <time>2026-09-20T14:33:26.000Z</time>
    </trkpt>
    <trkpt lat="43.212424" lon="5.446438">
      <ele>46</ele>
      <time>2026-09-20T14:34:58.000Z</time>
    </trkpt>
    <trkpt lat="43.212827" lon="5.445552">
      <ele>34</ele>
      <time>2026-09-20T14:36:25.000Z</time>
    </trkpt>
    <trkpt lat="43.212974" lon="5.444988">
      <ele>20</ele>
      <time>2026-09-20T14:37:15.000Z</time>
    </trkpt>
    <trkpt lat="43.212733" lon="5.444619">
      <ele>12</ele>
      <time>2026-09-20T14:37:56.000Z</time>
    </trkpt>
    <trkpt lat="43.213054" lon="5.443932">
      <ele>6</ele>
      <time>2026-09-20T14:39:04.000Z</time>
    </trkpt>
    <trkpt lat="43.213113" lon="5.443455">
      <ele>4</ele>
      <time>2026-09-20T14:39:44.000Z</time>
    </trkpt>
    <trkpt lat="43.213207" lon="5.442897">
      <ele>3</ele>
      <time>2026-09-20T14:40:32.000Z</time>
    </trkpt>
    <trkpt lat="43.213175" lon="5.442403">
      <ele>1</ele>
      <time>2026-09-20T14:41:13.000Z</time>
    </trkpt>
    <trkpt lat="43.213394" lon="5.441451">
      <ele>3</ele>
      <time>2026-09-20T14:42:57.000Z</time>
    </trkpt>
    <trkpt lat="43.213884" lon="5.441056">
      <ele>6</ele>
      <time>2026-09-20T14:44:33.000Z</time>
    </trkpt>
    <trkpt lat="43.214039" lon="5.440681">
      <ele>8</ele>
      <time>2026-09-20T14:45:30.000Z</time>
    </trkpt>
    <trkpt lat="43.214223" lon="5.440064">
      <ele>10</ele>
      <time>2026-09-20T14:46:46.000Z</time>
    </trkpt>
    <trkpt lat="43.214471" lon="5.439548">
      <ele>10</ele>
      <time>2026-09-20T14:47:38.000Z</time>
    </trkpt>
    <trkpt lat="43.214626" lon="5.439372">
      <ele>10</ele>
      <time>2026-09-20T14:48:01.000Z</time>
    </trkpt>
    <trkpt lat="43.214896" lon="5.439378">
      <ele>12</ele>
      <time>2026-09-20T14:48:52.000Z</time>
    </trkpt>
    <trkpt lat="43.215146" lon="5.439163">
      <ele>13</ele>
      <time>2026-09-20T14:49:36.000Z</time>
    </trkpt>
    <trkpt lat="43.215396" lon="5.438734">
      <ele>16</ele>
      <time>2026-09-20T14:50:53.000Z</time>
    </trkpt>
    <trkpt lat="43.215459" lon="5.438176">
      <ele>18</ele>
      <time>2026-09-20T14:52:01.000Z</time>
    </trkpt>
    <trkpt lat="43.215662" lon="5.437811">
      <ele>20</ele>
      <time>2026-09-20T14:53:00.000Z</time>
    </trkpt>
    <trkpt lat="43.216069" lon="5.437618">
      <ele>22</ele>
      <time>2026-09-20T14:54:10.000Z</time>
    </trkpt>
    <trkpt lat="43.216522" lon="5.437854">
      <ele>28</ele>
      <time>2026-09-20T14:56:07.000Z</time>
    </trkpt>
    <trkpt lat="43.216674" lon="5.43816">
      <ele>34</ele>
      <time>2026-09-20T14:57:40.000Z</time>
    </trkpt>
    <trkpt lat="43.216944" lon="5.438476">
      <ele>49</ele>
      <time>2026-09-20T15:00:55.000Z</time>
    </trkpt>
    <trkpt lat="43.217413" lon="5.438669">
      <ele>89</ele>
      <time>2026-09-20T15:08:42.000Z</time>
    </trkpt>
    <trkpt lat="43.217523" lon="5.439227">
      <ele>78</ele>
      <time>2026-09-20T15:09:30.000Z</time>
    </trkpt>
    <trkpt lat="43.217757" lon="5.439463">
      <ele>88</ele>
      <time>2026-09-20T15:11:46.000Z</time>
    </trkpt>
    <trkpt lat="43.218059" lon="5.439487">
      <ele>105</ele>
      <time>2026-09-20T15:15:15.000Z</time>
    </trkpt>
    <trkpt lat="43.218273" lon="5.439893">
      <ele>106</ele>
      <time>2026-09-20T15:16:07.000Z</time>
    </trkpt>
    <trkpt lat="43.218475" lon="5.440203">
      <ele>111</ele>
      <time>2026-09-20T15:17:33.000Z</time>
    </trkpt>
    <trkpt lat="43.219008" lon="5.440365">
      <ele>127</ele>
      <time>2026-09-20T15:21:20.000Z</time>
    </trkpt>
    <trkpt lat="43.219384" lon="5.440236">
      <ele>149</ele>
      <time>2026-09-20T15:25:51.000Z</time>
    </trkpt>
    <trkpt lat="43.219243" lon="5.440837">
      <ele>147</ele>
      <time>2026-09-20T15:26:44.000Z</time>
    </trkpt>
    <trkpt lat="43.218954" lon="5.440876">
      <ele>142</ele>
      <time>2026-09-20T15:27:17.000Z</time>
    </trkpt>
    <trkpt lat="43.218615" lon="5.441116">
      <ele>152</ele>
      <time>2026-09-20T15:29:44.000Z</time>
    </trkpt>
    <trkpt lat="43.218534" lon="5.441343">
      <ele>156</ele>
      <time>2026-09-20T15:30:46.000Z</time>
    </trkpt>
    <trkpt lat="43.218707" lon="5.441453">
      <ele>158</ele>
      <time>2026-09-20T15:31:28.000Z</time>
    </trkpt>
    <trkpt lat="43.218863" lon="5.44199">
      <ele>166</ele>
      <time>2026-09-20T15:33:39.000Z</time>
    </trkpt>
    <trkpt lat="43.219298" lon="5.441831">
      <ele>171</ele>
      <time>2026-09-20T15:35:22.000Z</time>
    </trkpt>
    <trkpt lat="43.219984" lon="5.441122">
      <ele>182</ele>
      <time>2026-09-20T15:38:53.000Z</time>
    </trkpt>
    <trkpt lat="43.220116" lon="5.442026">
      <ele>187</ele>
      <time>2026-09-20T15:41:01.000Z</time>
    </trkpt>
    <trkpt lat="43.220087" lon="5.443079">
      <ele>191</ele>
      <time>2026-09-20T15:43:10.000Z</time>
    </trkpt>
    <trkpt lat="43.220369" lon="5.442543">
      <ele>187</ele>
      <time>2026-09-20T15:44:05.000Z</time>
    </trkpt>
    <trkpt lat="43.220703" lon="5.441176">
      <ele>180</ele>
      <time>2026-09-20T15:46:05.000Z</time>
    </trkpt>
    <trkpt lat="43.22153" lon="5.440316">
      <ele>175</ele>
      <time>2026-09-20T15:48:04.000Z</time>
    </trkpt>
    <trkpt lat="43.222288" lon="5.439973">
      <ele>171</ele>
      <time>2026-09-20T15:49:35.000Z</time>
    </trkpt>
    <trkpt lat="43.22264" lon="5.439833">
      <ele>170</ele>
      <time>2026-09-20T15:50:17.000Z</time>
    </trkpt>
    <trkpt lat="43.222992" lon="5.439544">
      <ele>168</ele>
      <time>2026-09-20T15:51:04.000Z</time>
    </trkpt>
    <trkpt lat="43.223578" lon="5.438771">
      <ele>165</ele>
      <time>2026-09-20T15:52:37.000Z</time>
    </trkpt>
    <trkpt lat="43.224247" lon="5.438391">
      <ele>163</ele>
      <time>2026-09-20T15:54:00.000Z</time>
    </trkpt>
    <trkpt lat="43.224641" lon="5.438106">
      <ele>164</ele>
      <time>2026-09-20T15:55:01.000Z</time>
    </trkpt>
    <trkpt lat="43.225798" lon="5.438063">
      <ele>165</ele>
      <time>2026-09-20T15:57:24.000Z</time>
    </trkpt>
    <trkpt lat="43.226416" lon="5.437924">
      <ele>165</ele>
      <time>2026-09-20T15:58:36.000Z</time>
    </trkpt>
    <trkpt lat="43.226783" lon="5.437591">
      <ele>163</ele>
      <time>2026-09-20T15:59:26.000Z</time>
    </trkpt>
    <trkpt lat="43.227332" lon="5.437285">
      <ele>160</ele>
      <time>2026-09-20T16:00:34.000Z</time>
    </trkpt>
    <trkpt lat="43.22769" lon="5.437183">
      <ele>158</ele>
      <time>2026-09-20T16:01:16.000Z</time>
    </trkpt>
    <trkpt lat="43.228026" lon="5.437259">
      <ele>155</ele>
      <time>2026-09-20T16:01:55.000Z</time>
    </trkpt>
    <trkpt lat="43.228609" lon="5.437159">
      <ele>151</ele>
      <time>2026-09-20T16:03:02.000Z</time>
    </trkpt>
    <trkpt lat="43.230426" lon="5.43684">
      <ele>140</ele>
      <time>2026-09-20T16:06:32.000Z</time>
    </trkpt>
    <trkpt lat="43.230433" lon="5.4364">
      <ele>139</ele>
      <time>2026-09-20T16:07:09.000Z</time>
    </trkpt>
    <trkpt lat="43.230442" lon="5.436411">
      <ele>139</ele>
      <time>2026-09-20T16:07:10.000Z</time>
    </trkpt>
  </trkseg>
</trk></gpx>