<?xml version="1.0" encoding="UTF-8" ?>
		<gpx
		 version="1.0"
		 xmlns:xsi="http://www.w3.org/2001/XMLSchema-instance"
		 xmlns="http://www.topografix.com/GPX/1/0"
		 xsi:schemaLocation="http://www.topografix.com/GPX/1/0 http://www.topografix.com/GPX/1/0/gpx.xsd"
		 creator="http://www.openrunner.com">
			<trk>
			    <name>--Cherbourg-Octeville-- OR-5468701:CSM_CHERBOURG_ETAPE_1</name>
			    <trkseg>
	
			<trkpt lat="49.64234" lon="-1.62276">
			 <ele>3</ele>
			<time>2015-11-18T09:51:13Z</time>
			</trkpt>
		
			<trkpt lat="49.64231" lon="-1.6227">
			 <ele>3</ele>
			<time>2015-11-18T09:53:13Z</time>
			</trkpt>
		
			<trkpt lat="49.64217" lon="-1.62211">
			 <ele>4</ele>
			<time>2015-11-18T09:55:13Z</time>
			</trkpt>
		
			<trkpt lat="49.64211" lon="-1.62196">
			 <ele>4</ele>
			<time>2015-11-18T09:57:13Z</time>
			</trkpt>
		
			<trkpt lat="49.642" lon="-1.62172">
			 <ele>4</ele>
			<time>2015-11-18T09:59:13Z</time>
			</trkpt>
		
			<trkpt lat="49.64187" lon="-1.62151">
			 <ele>4</ele>
			<time>2015-11-18T10:01:13Z</time>
			</trkpt>
		
			<trkpt lat="49.6418" lon="-1.62142">
			 <ele>4</ele>
			<time>2015-11-18T10:03:13Z</time>
			</trkpt>
		
			<trkpt lat="49.64162" lon="-1.62129">
			 <ele>5</ele>
			<time>2015-11-18T10:05:13Z</time>
			</trkpt>
		
			<trkpt lat="49.64152" lon="-1.62125">
			 <ele>5</ele>
			<time>2015-11-18T10:07:13Z</time>
			</trkpt>
		
			<trkpt lat="49.64149" lon="-1.62124">
			 <ele>5</ele>
			<time>2015-11-18T10:09:13Z</time>
			</trkpt>
		
			<trkpt lat="49.64137" lon="-1.62122">
			 <ele>5</ele>
			<time>2015-11-18T10:11:13Z</time>
			</trkpt>
		
			<trkpt lat="49.64123" lon="-1.62123">
			 <ele>5</ele>
			<time>2015-11-18T10:13:13Z</time>
			</trkpt>
		
			<trkpt lat="49.64116" lon="-1.62126">
			 <ele>5</ele>
			<time>2015-11-18T10:15:13Z</time>
			</trkpt>
		
			<trkpt lat="49.64061" lon="-1.62139">
			 <ele>7</ele>
			<time>2015-11-18T10:17:13Z</time>
			</trkpt>
		
			<trkpt lat="49.64019" lon="-1.62147">
			 <ele>10</ele>
			<time>2015-11-18T10:19:13Z</time>
			</trkpt>
		
			<trkpt lat="49.64003" lon="-1.62149">
			 <ele>10</ele>
			<time>2015-11-18T10:21:13Z</time>
			</trkpt>
		
			<trkpt lat="49.63976" lon="-1.62136">
			 <ele>8</ele>
			<time>2015-11-18T10:23:13Z</time>
			</trkpt>
		
			<trkpt lat="49.63943" lon="-1.62118">
			 <ele>5</ele>
			<time>2015-11-18T10:25:13Z</time>
			</trkpt>
		
			<trkpt lat="49.63924" lon="-1.62114">
			 <ele>4</ele>
			<time>2015-11-18T10:27:13Z</time>
			</trkpt>
		
			<trkpt lat="49.63922" lon="-1.62114">
			 <ele>4</ele>
			<time>2015-11-18T10:29:13Z</time>
			</trkpt>
		
			<trkpt lat="49.63906" lon="-1.62115">
			 <ele>4</ele>
			<time>2015-11-18T10:31:13Z</time>
			</trkpt>
		
			<trkpt lat="49.63892" lon="-1.62131">
			 <ele>5</ele>
			<time>2015-11-18T10:33:13Z</time>
			</trkpt>
		
			<trkpt lat="49.6388" lon="-1.62141">
			 <ele>5</ele>
			<time>2015-11-18T10:35:13Z</time>
			</trkpt>
		
			<trkpt lat="49.63874" lon="-1.62144">
			 <ele>5</ele>
			<time>2015-11-18T10:37:13Z</time>
			</trkpt>
		
			<trkpt lat="49.63437" lon="-1.62224">
			 <ele>5</ele>
			<time>2015-11-18T10:39:13Z</time>
			</trkpt>
		
			<trkpt lat="49.63403" lon="-1.62228">
			 <ele>5</ele>
			<time>2015-11-18T10:41:13Z</time>
			</trkpt>
		
			<trkpt lat="49.63393" lon="-1.62229">
			 <ele>5</ele>
			<time>2015-11-18T10:43:13Z</time>
			</trkpt>
		
			<trkpt lat="49.63378" lon="-1.62233">
			 <ele>5</ele>
			<time>2015-11-18T10:45:13Z</time>
			</trkpt>
		
			<trkpt lat="49.6334" lon="-1.62242">
			 <ele>6</ele>
			<time>2015-11-18T10:47:13Z</time>
			</trkpt>
		
			<trkpt lat="49.63333" lon="-1.62246">
			 <ele>6</ele>
			<time>2015-11-18T10:49:13Z</time>
			</trkpt>
		
			<trkpt lat="49.63328" lon="-1.62252">
			 <ele>7</ele>
			<time>2015-11-18T10:51:13Z</time>
			</trkpt>
		
			<trkpt lat="49.63293" lon="-1.62293">
			 <ele>10</ele>
			<time>2015-11-18T10:53:13Z</time>
			</trkpt>
		
			<trkpt lat="49.6329" lon="-1.62297">
			 <ele>11</ele>
			<time>2015-11-18T10:55:13Z</time>
			</trkpt>
		
			<trkpt lat="49.63284" lon="-1.62303">
			 <ele>11</ele>
			<time>2015-11-18T10:57:13Z</time>
			</trkpt>
		
			<trkpt lat="49.63262" lon="-1.62329">
			 <ele>13</ele>
			<time>2015-11-18T10:59:13Z</time>
			</trkpt>
		
			<trkpt lat="49.63244" lon="-1.62343">
			 <ele>14</ele>
			<time>2015-11-18T11:01:13Z</time>
			</trkpt>
		
			<trkpt lat="49.63232" lon="-1.6235">
			 <ele>15</ele>
			<time>2015-11-18T11:03:13Z</time>
			</trkpt>
		
			<trkpt lat="49.63234" lon="-1.62389">
			 <ele>17</ele>
			<time>2015-11-18T11:05:13Z</time>
			</trkpt>
		
			<trkpt lat="49.6324" lon="-1.62534">
			 <ele>25</ele>
			<time>2015-11-18T11:07:13Z</time>
			</trkpt>
		
			<trkpt lat="49.63238" lon="-1.62562">
			 <ele>27</ele>
			<time>2015-11-18T11:09:13Z</time>
			</trkpt>
		
			<trkpt lat="49.63201" lon="-1.62808">
			 <ele>39</ele>
			<time>2015-11-18T11:11:13Z</time>
			</trkpt>
		
			<trkpt lat="49.63192" lon="-1.6286">
			 <ele>42</ele>
			<time>2015-11-18T11:13:13Z</time>
			</trkpt>
		
			<trkpt lat="49.63187" lon="-1.62878">
			 <ele>43</ele>
			<time>2015-11-18T11:15:13Z</time>
			</trkpt>
		
			<trkpt lat="49.63154" lon="-1.62965">
			 <ele>51</ele>
			<time>2015-11-18T11:17:13Z</time>
			</trkpt>
		
			<trkpt lat="49.63148" lon="-1.62988">
			 <ele>52</ele>
			<time>2015-11-18T11:19:13Z</time>
			</trkpt>
		
			<trkpt lat="49.63141" lon="-1.6304">
			 <ele>55</ele>
			<time>2015-11-18T11:21:13Z</time>
			</trkpt>
		
			<trkpt lat="49.63141" lon="-1.63061">
			 <ele>55</ele>
			<time>2015-11-18T11:23:13Z</time>
			</trkpt>
		
			<trkpt lat="49.63147" lon="-1.63109">
			 <ele>58</ele>
			<time>2015-11-18T11:25:13Z</time>
			</trkpt>
		
			<trkpt lat="49.63167" lon="-1.63192">
			 <ele>64</ele>
			<time>2015-11-18T11:27:13Z</time>
			</trkpt>
		
			<trkpt lat="49.63171" lon="-1.63214">
			 <ele>65</ele>
			<time>2015-11-18T11:29:13Z</time>
			</trkpt>
		
			<trkpt lat="49.63173" lon="-1.63235">
			 <ele>66</ele>
			<time>2015-11-18T11:31:13Z</time>
			</trkpt>
		
			<trkpt lat="49.63177" lon="-1.63296">
			 <ele>67</ele>
			<time>2015-11-18T11:33:13Z</time>
			</trkpt>
		
			<trkpt lat="49.63178" lon="-1.63316">
			 <ele>68</ele>
			<time>2015-11-18T11:35:13Z</time>
			</trkpt>
		
			<trkpt lat="49.63181" lon="-1.63332">
			 <ele>68</ele>
			<time>2015-11-18T11:37:13Z</time>
			</trkpt>
		
			<trkpt lat="49.63183" lon="-1.63354">
			 <ele>68</ele>
			<time>2015-11-18T11:39:13Z</time>
			</trkpt>
		
			<trkpt lat="49.63192" lon="-1.6347">
			 <ele>70</ele>
			<time>2015-11-18T11:41:13Z</time>
			</trkpt>
		
			<trkpt lat="49.63195" lon="-1.63534">
			 <ele>72</ele>
			<time>2015-11-18T11:43:13Z</time>
			</trkpt>
		
			<trkpt lat="49.63191" lon="-1.63564">
			 <ele>73</ele>
			<time>2015-11-18T11:45:13Z</time>
			</trkpt>
		
			<trkpt lat="49.63192" lon="-1.6357">
			 <ele>73</ele>
			<time>2015-11-18T11:47:13Z</time>
			</trkpt>
		
			<trkpt lat="49.63186" lon="-1.63572">
			 <ele>73</ele>
			<time>2015-11-18T11:49:13Z</time>
			</trkpt>
		
			<trkpt lat="49.63182" lon="-1.63576">
			 <ele>73</ele>
			<time>2015-11-18T11:51:13Z</time>
			</trkpt>
		
			<trkpt lat="49.63123" lon="-1.63691">
			 <ele>76</ele>
			<time>2015-11-18T11:53:13Z</time>
			</trkpt>
		
			<trkpt lat="49.63099" lon="-1.63755">
			 <ele>77</ele>
			<time>2015-11-18T11:55:13Z</time>
			</trkpt>
		
			<trkpt lat="49.63035" lon="-1.63895">
			 <ele>78</ele>
			<time>2015-11-18T11:57:13Z</time>
			</trkpt>
		
			<trkpt lat="49.6303" lon="-1.63904">
			 <ele>78</ele>
			<time>2015-11-18T11:59:13Z</time>
			</trkpt>
		
			<trkpt lat="49.63018" lon="-1.6392">
			 <ele>78</ele>
			<time>2015-11-18T12:01:13Z</time>
			</trkpt>
		
			<trkpt lat="49.62998" lon="-1.6394">
			 <ele>78</ele>
			<time>2015-11-18T12:03:13Z</time>
			</trkpt>
		
			<trkpt lat="49.62965" lon="-1.63981">
			 <ele>77</ele>
			<time>2015-11-18T12:05:13Z</time>
			</trkpt>
		
			<trkpt lat="49.62935" lon="-1.64039">
			 <ele>77</ele>
			<time>2015-11-18T12:07:13Z</time>
			</trkpt>
		
			<trkpt lat="49.62919" lon="-1.64054">
			 <ele>77</ele>
			<time>2015-11-18T12:09:13Z</time>
			</trkpt>
		
			<trkpt lat="49.62903" lon="-1.64066">
			 <ele>78</ele>
			<time>2015-11-18T12:11:13Z</time>
			</trkpt>
		
			<trkpt lat="49.62913" lon="-1.64097">
			 <ele>79</ele>
			<time>2015-11-18T12:13:13Z</time>
			</trkpt>
		
			<trkpt lat="49.62771" lon="-1.64232">
			 <ele>87</ele>
			<time>2015-11-18T12:15:13Z</time>
			</trkpt>
		
			<trkpt lat="49.62733" lon="-1.64267">
			 <ele>89</ele>
			<time>2015-11-18T12:17:13Z</time>
			</trkpt>
		
			<trkpt lat="49.62726" lon="-1.64276">
			 <ele>89</ele>
			<time>2015-11-18T12:19:13Z</time>
			</trkpt>
		
			<trkpt lat="49.62624" lon="-1.64375">
			 <ele>93</ele>
			<time>2015-11-18T12:21:13Z</time>
			</trkpt>
		
			<trkpt lat="49.62564" lon="-1.64436">
			 <ele>95</ele>
			<time>2015-11-18T12:23:13Z</time>
			</trkpt>
		
			<trkpt lat="49.62529" lon="-1.64469">
			 <ele>97</ele>
			<time>2015-11-18T12:25:13Z</time>
			</trkpt>
		
			<trkpt lat="49.62415" lon="-1.64584">
			 <ele>101</ele>
			<time>2015-11-18T12:27:13Z</time>
			</trkpt>
		
			<trkpt lat="49.62395" lon="-1.64601">
			 <ele>102</ele>
			<time>2015-11-18T12:29:13Z</time>
			</trkpt>
		
			<trkpt lat="49.62361" lon="-1.64635">
			 <ele>102</ele>
			<time>2015-11-18T12:31:13Z</time>
			</trkpt>
		
			<trkpt lat="49.6232" lon="-1.64673">
			 <ele>101</ele>
			<time>2015-11-18T12:33:13Z</time>
			</trkpt>
		
			<trkpt lat="49.62223" lon="-1.64769">
			 <ele>98</ele>
			<time>2015-11-18T12:35:13Z</time>
			</trkpt>
		
			<trkpt lat="49.62221" lon="-1.64781">
			 <ele>98</ele>
			<time>2015-11-18T12:37:13Z</time>
			</trkpt>
		
			<trkpt lat="49.62212" lon="-1.64798">
			 <ele>98</ele>
			<time>2015-11-18T12:39:13Z</time>
			</trkpt>
		
			<trkpt lat="49.62199" lon="-1.64817">
			 <ele>97</ele>
			<time>2015-11-18T12:41:13Z</time>
			</trkpt>
		
			<trkpt lat="49.62189" lon="-1.64834">
			 <ele>97</ele>
			<time>2015-11-18T12:43:13Z</time>
			</trkpt>
		
			<trkpt lat="49.62168" lon="-1.64863">
			 <ele>96</ele>
			<time>2015-11-18T12:45:13Z</time>
			</trkpt>
		
			<trkpt lat="49.6207" lon="-1.64996">
			 <ele>92</ele>
			<time>2015-11-18T12:47:13Z</time>
			</trkpt>
		
			<trkpt lat="49.62016" lon="-1.65054">
			 <ele>89</ele>
			<time>2015-11-18T12:49:13Z</time>
			</trkpt>
		
			<trkpt lat="49.62007" lon="-1.65066">
			 <ele>89</ele>
			<time>2015-11-18T12:51:13Z</time>
			</trkpt>
		
			<trkpt lat="49.61986" lon="-1.65105">
			 <ele>88</ele>
			<time>2015-11-18T12:53:13Z</time>
			</trkpt>
		
			<trkpt lat="49.61953" lon="-1.65151">
			 <ele>87</ele>
			<time>2015-11-18T12:55:13Z</time>
			</trkpt>
		
			<trkpt lat="49.61924" lon="-1.65186">
			 <ele>86</ele>
			<time>2015-11-18T12:57:13Z</time>
			</trkpt>
		
			<trkpt lat="49.61899" lon="-1.65211">
			 <ele>85</ele>
			<time>2015-11-18T12:59:13Z</time>
			</trkpt>
		
			<trkpt lat="49.61884" lon="-1.65232">
			 <ele>84</ele>
			<time>2015-11-18T13:01:13Z</time>
			</trkpt>
		
			<trkpt lat="49.61856" lon="-1.65263">
			 <ele>83</ele>
			<time>2015-11-18T13:03:13Z</time>
			</trkpt>
		
			<trkpt lat="49.6184" lon="-1.65279">
			 <ele>83</ele>
			<time>2015-11-18T13:05:13Z</time>
			</trkpt>
		
			<trkpt lat="49.61828" lon="-1.65285">
			 <ele>82</ele>
			<time>2015-11-18T13:07:13Z</time>
			</trkpt>
		
			<trkpt lat="49.61821" lon="-1.65287">
			 <ele>82</ele>
			<time>2015-11-18T13:09:13Z</time>
			</trkpt>
		
			<trkpt lat="49.61821" lon="-1.65292">
			 <ele>82</ele>
			<time>2015-11-18T13:11:13Z</time>
			</trkpt>
		
			<trkpt lat="49.61817" lon="-1.65303">
			 <ele>83</ele>
			<time>2015-11-18T13:13:13Z</time>
			</trkpt>
		
			<trkpt lat="49.61749" lon="-1.65394">
			 <ele>85</ele>
			<time>2015-11-18T13:15:13Z</time>
			</trkpt>
		
			<trkpt lat="49.61719" lon="-1.65437">
			 <ele>84</ele>
			<time>2015-11-18T13:17:13Z</time>
			</trkpt>
		
			<trkpt lat="49.61675" lon="-1.65505">
			 <ele>83</ele>
			<time>2015-11-18T13:19:13Z</time>
			</trkpt>
		
			<trkpt lat="49.61642" lon="-1.65559">
			 <ele>81</ele>
			<time>2015-11-18T13:21:13Z</time>
			</trkpt>
		
			<trkpt lat="49.61629" lon="-1.65583">
			 <ele>81</ele>
			<time>2015-11-18T13:23:13Z</time>
			</trkpt>
		
			<trkpt lat="49.61618" lon="-1.65594">
			 <ele>80</ele>
			<time>2015-11-18T13:25:13Z</time>
			</trkpt>
		
			<trkpt lat="49.61573" lon="-1.65654">
			 <ele>76</ele>
			<time>2015-11-18T13:27:13Z</time>
			</trkpt>
		
			<trkpt lat="49.61572" lon="-1.65667">
			 <ele>76</ele>
			<time>2015-11-18T13:29:13Z</time>
			</trkpt>
		
			<trkpt lat="49.61551" lon="-1.65729">
			 <ele>75</ele>
			<time>2015-11-18T13:31:13Z</time>
			</trkpt>
		
			<trkpt lat="49.6154" lon="-1.65758">
			 <ele>74</ele>
			<time>2015-11-18T13:33:13Z</time>
			</trkpt>
		
			<trkpt lat="49.61539" lon="-1.65776">
			 <ele>74</ele>
			<time>2015-11-18T13:35:13Z</time>
			</trkpt>
		
			<trkpt lat="49.61539" lon="-1.65793">
			 <ele>73</ele>
			<time>2015-11-18T13:37:13Z</time>
			</trkpt>
		
			<trkpt lat="49.61541" lon="-1.65809">
			 <ele>73</ele>
			<time>2015-11-18T13:39:13Z</time>
			</trkpt>
		
			<trkpt lat="49.61545" lon="-1.65824">
			 <ele>73</ele>
			<time>2015-11-18T13:41:13Z</time>
			</trkpt>
		
			<trkpt lat="49.61558" lon="-1.65867">
			 <ele>73</ele>
			<time>2015-11-18T13:43:13Z</time>
			</trkpt>
		
			<trkpt lat="49.61562" lon="-1.65904">
			 <ele>72</ele>
			<time>2015-11-18T13:45:13Z</time>
			</trkpt>
		
			<trkpt lat="49.61563" lon="-1.65939">
			 <ele>71</ele>
			<time>2015-11-18T13:47:13Z</time>
			</trkpt>
		
			<trkpt lat="49.61561" lon="-1.65968">
			 <ele>70</ele>
			<time>2015-11-18T13:49:13Z</time>
			</trkpt>
		
			<trkpt lat="49.61562" lon="-1.6598">
			 <ele>70</ele>
			<time>2015-11-18T13:51:13Z</time>
			</trkpt>
		
			<trkpt lat="49.61555" lon="-1.6598">
			 <ele>69</ele>
			<time>2015-11-18T13:53:13Z</time>
			</trkpt>
		
			<trkpt lat="49.61541" lon="-1.65983">
			 <ele>68</ele>
			<time>2015-11-18T13:55:13Z</time>
			</trkpt>
		
			<trkpt lat="49.61536" lon="-1.65999">
			 <ele>67</ele>
			<time>2015-11-18T13:57:13Z</time>
			</trkpt>
		
			<trkpt lat="49.61533" lon="-1.6601">
			 <ele>67</ele>
			<time>2015-11-18T13:59:13Z</time>
			</trkpt>
		
			<trkpt lat="49.6153" lon="-1.66019">
			 <ele>68</ele>
			<time>2015-11-18T14:01:13Z</time>
			</trkpt>
		
			<trkpt lat="49.61488" lon="-1.6607">
			 <ele>68</ele>
			<time>2015-11-18T14:03:13Z</time>
			</trkpt>
		
			<trkpt lat="49.61467" lon="-1.66087">
			 <ele>67</ele>
			<time>2015-11-18T14:05:13Z</time>
			</trkpt>
		
			<trkpt lat="49.61437" lon="-1.66104">
			 <ele>65</ele>
			<time>2015-11-18T14:07:13Z</time>
			</trkpt>
		
			<trkpt lat="49.61417" lon="-1.66124">
			 <ele>63</ele>
			<time>2015-11-18T14:09:13Z</time>
			</trkpt>
		
			<trkpt lat="49.61397" lon="-1.66148">
			 <ele>63</ele>
			<time>2015-11-18T14:11:13Z</time>
			</trkpt>
		
			<trkpt lat="49.6138" lon="-1.66173">
			 <ele>62</ele>
			<time>2015-11-18T14:13:13Z</time>
			</trkpt>
		
			<trkpt lat="49.6135" lon="-1.66222">
			 <ele>63</ele>
			<time>2015-11-18T14:15:13Z</time>
			</trkpt>
		
			<trkpt lat="49.61327" lon="-1.66265">
			 <ele>63</ele>
			<time>2015-11-18T14:17:13Z</time>
			</trkpt>
		
			<trkpt lat="49.61292" lon="-1.6632">
			 <ele>62</ele>
			<time>2015-11-18T14:19:13Z</time>
			</trkpt>
		
			<trkpt lat="49.61266" lon="-1.66358">
			 <ele>62</ele>
			<time>2015-11-18T14:21:13Z</time>
			</trkpt>
		
			<trkpt lat="49.61252" lon="-1.66374">
			 <ele>62</ele>
			<time>2015-11-18T14:23:13Z</time>
			</trkpt>
		
			<trkpt lat="49.61231" lon="-1.66401">
			 <ele>60</ele>
			<time>2015-11-18T14:25:13Z</time>
			</trkpt>
		
			<trkpt lat="49.61221" lon="-1.66413">
			 <ele>60</ele>
			<time>2015-11-18T14:27:13Z</time>
			</trkpt>
		
			<trkpt lat="49.6121" lon="-1.66432">
			 <ele>59</ele>
			<time>2015-11-18T14:29:13Z</time>
			</trkpt>
		
			<trkpt lat="49.61193" lon="-1.66457">
			 <ele>56</ele>
			<time>2015-11-18T14:31:13Z</time>
			</trkpt>
		
			<trkpt lat="49.61172" lon="-1.66494">
			 <ele>53</ele>
			<time>2015-11-18T14:33:13Z</time>
			</trkpt>
		
			<trkpt lat="49.61146" lon="-1.66524">
			 <ele>48</ele>
			<time>2015-11-18T14:35:13Z</time>
			</trkpt>
		
			<trkpt lat="49.61141" lon="-1.66533">
			 <ele>48</ele>
			<time>2015-11-18T14:37:13Z</time>
			</trkpt>
		
			<trkpt lat="49.61141" lon="-1.66542">
			 <ele>47</ele>
			<time>2015-11-18T14:39:13Z</time>
			</trkpt>
		
			<trkpt lat="49.61152" lon="-1.66612">
			 <ele>45</ele>
			<time>2015-11-18T14:41:13Z</time>
			</trkpt>
		
			<trkpt lat="49.61158" lon="-1.66661">
			 <ele>44</ele>
			<time>2015-11-18T14:43:13Z</time>
			</trkpt>
		
			<trkpt lat="49.61158" lon="-1.66677">
			 <ele>44</ele>
			<time>2015-11-18T14:45:13Z</time>
			</trkpt>
		
			<trkpt lat="49.61153" lon="-1.66688">
			 <ele>44</ele>
			<time>2015-11-18T14:47:13Z</time>
			</trkpt>
		
			<trkpt lat="49.61144" lon="-1.66696">
			 <ele>43</ele>
			<time>2015-11-18T14:49:13Z</time>
			</trkpt>
		
			<trkpt lat="49.61149" lon="-1.66698">
			 <ele>44</ele>
			<time>2015-11-18T14:51:13Z</time>
			</trkpt>
		
			<trkpt lat="49.61154" lon="-1.66704">
			 <ele>45</ele>
			<time>2015-11-18T14:53:13Z</time>
			</trkpt>
		
			<trkpt lat="49.61171" lon="-1.66755">
			 <ele>49</ele>
			<time>2015-11-18T14:55:13Z</time>
			</trkpt>
		
			<trkpt lat="49.61191" lon="-1.66817">
			 <ele>55</ele>
			<time>2015-11-18T14:57:13Z</time>
			</trkpt>
		
			<trkpt lat="49.61212" lon="-1.66872">
			 <ele>60</ele>
			<time>2015-11-18T14:59:13Z</time>
			</trkpt>
		
			<trkpt lat="49.61245" lon="-1.66955">
			 <ele>69</ele>
			<time>2015-11-18T15:01:13Z</time>
			</trkpt>
		
			<trkpt lat="49.61275" lon="-1.67033">
			 <ele>77</ele>
			<time>2015-11-18T15:03:13Z</time>
			</trkpt>
		
			<trkpt lat="49.61253" lon="-1.67077">
			 <ele>78</ele>
			<time>2015-11-18T15:05:13Z</time>
			</trkpt>
		
			<trkpt lat="49.61245" lon="-1.67104">
			 <ele>77</ele>
			<time>2015-11-18T15:07:13Z</time>
			</trkpt>
		
			<trkpt lat="49.61243" lon="-1.67118">
			 <ele>77</ele>
			<time>2015-11-18T15:09:13Z</time>
			</trkpt>
		
			<trkpt lat="49.61242" lon="-1.67136">
			 <ele>77</ele>
			<time>2015-11-18T15:11:13Z</time>
			</trkpt>
		
			<trkpt lat="49.61244" lon="-1.67152">
			 <ele>77</ele>
			<time>2015-11-18T15:13:13Z</time>
			</trkpt>
		
			<trkpt lat="49.61246" lon="-1.67165">
			 <ele>77</ele>
			<time>2015-11-18T15:15:13Z</time>
			</trkpt>
		
			<trkpt lat="49.61255" lon="-1.67202">
			 <ele>76</ele>
			<time>2015-11-18T15:17:13Z</time>
			</trkpt>
		
			<trkpt lat="49.61256" lon="-1.67218">
			 <ele>75</ele>
			<time>2015-11-18T15:19:13Z</time>
			</trkpt>
		
			<trkpt lat="49.61257" lon="-1.67236">
			 <ele>74</ele>
			<time>2015-11-18T15:21:13Z</time>
			</trkpt>
		
			<trkpt lat="49.61255" lon="-1.6727">
			 <ele>74</ele>
			<time>2015-11-18T15:23:13Z</time>
			</trkpt>
		
			<trkpt lat="49.61253" lon="-1.67284">
			 <ele>74</ele>
			<time>2015-11-18T15:25:13Z</time>
			</trkpt>
		
			<trkpt lat="49.61248" lon="-1.67298">
			 <ele>74</ele>
			<time>2015-11-18T15:27:13Z</time>
			</trkpt>
		
			<trkpt lat="49.61237" lon="-1.67322">
			 <ele>75</ele>
			<time>2015-11-18T15:29:13Z</time>
			</trkpt>
		
			<trkpt lat="49.61228" lon="-1.67334">
			 <ele>75</ele>
			<time>2015-11-18T15:31:13Z</time>
			</trkpt>
		
			<trkpt lat="49.61212" lon="-1.67355">
			 <ele>75</ele>
			<time>2015-11-18T15:33:13Z</time>
			</trkpt>
		
			<trkpt lat="49.61147" lon="-1.67424">
			 <ele>77</ele>
			<time>2015-11-18T15:35:13Z</time>
			</trkpt>
		
			<trkpt lat="49.61123" lon="-1.6745">
			 <ele>77</ele>
			<time>2015-11-18T15:37:13Z</time>
			</trkpt>
		
			<trkpt lat="49.61211" lon="-1.67533">
			 <ele>88</ele>
			<time>2015-11-18T15:39:13Z</time>
			</trkpt>
		
			<trkpt lat="49.61267" lon="-1.67579">
			 <ele>97</ele>
			<time>2015-11-18T15:41:13Z</time>
			</trkpt>
		
			<trkpt lat="49.61306" lon="-1.67616">
			 <ele>105</ele>
			<time>2015-11-18T15:43:13Z</time>
			</trkpt>
		
			<trkpt lat="49.61313" lon="-1.67619">
			 <ele>107</ele>
			<time>2015-11-18T15:45:13Z</time>
			</trkpt>
		
			<trkpt lat="49.61329" lon="-1.67609">
			 <ele>108</ele>
			<time>2015-11-18T15:47:13Z</time>
			</trkpt>
		
			<trkpt lat="49.61368" lon="-1.67569">
			 <ele>113</ele>
			<time>2015-11-18T15:49:13Z</time>
			</trkpt>
		
			<trkpt lat="49.6141" lon="-1.67523">
			 <ele>119</ele>
			<time>2015-11-18T15:51:13Z</time>
			</trkpt>
		
			<trkpt lat="49.61451" lon="-1.6747">
			 <ele>121</ele>
			<time>2015-11-18T15:53:13Z</time>
			</trkpt>
		
			<trkpt lat="49.6149" lon="-1.67417">
			 <ele>123</ele>
			<time>2015-11-18T15:55:13Z</time>
			</trkpt>
		
			<trkpt lat="49.61496" lon="-1.67409">
			 <ele>124</ele>
			<time>2015-11-18T15:57:13Z</time>
			</trkpt>
		
			<trkpt lat="49.61504" lon="-1.67427">
			 <ele>126</ele>
			<time>2015-11-18T15:59:13Z</time>
			</trkpt>
		
			<trkpt lat="49.61537" lon="-1.67484">
			 <ele>132</ele>
			<time>2015-11-18T16:01:13Z</time>
			</trkpt>
		
			<trkpt lat="49.61579" lon="-1.6757">
			 <ele>139</ele>
			<time>2015-11-18T16:03:13Z</time>
			</trkpt>
		
			<trkpt lat="49.61557" lon="-1.67659">
			 <ele>138</ele>
			<time>2015-11-18T16:05:13Z</time>
			</trkpt>
		
			<trkpt lat="49.61543" lon="-1.67743">
			 <ele>138</ele>
			<time>2015-11-18T16:07:13Z</time>
			</trkpt>
		
			<trkpt lat="49.61528" lon="-1.67839">
			 <ele>138</ele>
			<time>2015-11-18T16:09:13Z</time>
			</trkpt>
		
			<trkpt lat="49.6152" lon="-1.67898">
			 <ele>138</ele>
			<time>2015-11-18T16:11:13Z</time>
			</trkpt>
		
			<trkpt lat="49.61507" lon="-1.68003">
			 <ele>138</ele>
			<time>2015-11-18T16:13:13Z</time>
			</trkpt>
		
			<trkpt lat="49.61502" lon="-1.68056">
			 <ele>140</ele>
			<time>2015-11-18T16:15:13Z</time>
			</trkpt>
		
			<trkpt lat="49.61498" lon="-1.68091">
			 <ele>141</ele>
			<time>2015-11-18T16:17:13Z</time>
			</trkpt>
		
			<trkpt lat="49.61491" lon="-1.68129">
			 <ele>140</ele>
			<time>2015-11-18T16:19:13Z</time>
			</trkpt>
		
			<trkpt lat="49.61485" lon="-1.68153">
			 <ele>140</ele>
			<time>2015-11-18T16:21:13Z</time>
			</trkpt>
		
			<trkpt lat="49.6147" lon="-1.68197">
			 <ele>140</ele>
			<time>2015-11-18T16:23:13Z</time>
			</trkpt>
		
			<trkpt lat="49.61454" lon="-1.68233">
			 <ele>140</ele>
			<time>2015-11-18T16:25:13Z</time>
			</trkpt>
		
			<trkpt lat="49.61403" lon="-1.68377">
			 <ele>143</ele>
			<time>2015-11-18T16:27:13Z</time>
			</trkpt>
		
			<trkpt lat="49.61386" lon="-1.68407">
			 <ele>143</ele>
			<time>2015-11-18T16:29:13Z</time>
			</trkpt>
		
			<trkpt lat="49.61367" lon="-1.68431">
			 <ele>144</ele>
			<time>2015-11-18T16:31:13Z</time>
			</trkpt>
		
			<trkpt lat="49.61339" lon="-1.68471">
			 <ele>144</ele>
			<time>2015-11-18T16:33:13Z</time>
			</trkpt>
		
			<trkpt lat="49.61315" lon="-1.68516">
			 <ele>144</ele>
			<time>2015-11-18T16:35:13Z</time>
			</trkpt>
		
			<trkpt lat="49.61308" lon="-1.68533">
			 <ele>144</ele>
			<time>2015-11-18T16:37:13Z</time>
			</trkpt>
		
			<trkpt lat="49.61304" lon="-1.6855">
			 <ele>145</ele>
			<time>2015-11-18T16:39:13Z</time>
			</trkpt>
		
			<trkpt lat="49.61301" lon="-1.68576">
			 <ele>145</ele>
			<time>2015-11-18T16:41:13Z</time>
			</trkpt>
		
			<trkpt lat="49.61292" lon="-1.68695">
			 <ele>145</ele>
			<time>2015-11-18T16:43:13Z</time>
			</trkpt>
		
			<trkpt lat="49.6129" lon="-1.6872">
			 <ele>145</ele>
			<time>2015-11-18T16:45:13Z</time>
			</trkpt>
		
			<trkpt lat="49.61285" lon="-1.68746">
			 <ele>145</ele>
			<time>2015-11-18T16:47:13Z</time>
			</trkpt>
		
			<trkpt lat="49.61279" lon="-1.6877">
			 <ele>145</ele>
			<time>2015-11-18T16:49:13Z</time>
			</trkpt>
		
			<trkpt lat="49.61262" lon="-1.68825">
			 <ele>146</ele>
			<time>2015-11-18T16:51:13Z</time>
			</trkpt>
		
			<trkpt lat="49.61238" lon="-1.68881">
			 <ele>146</ele>
			<time>2015-11-18T16:53:13Z</time>
			</trkpt>
		
			<trkpt lat="49.61228" lon="-1.6891">
			 <ele>146</ele>
			<time>2015-11-18T16:55:13Z</time>
			</trkpt>
		
			<trkpt lat="49.61222" lon="-1.68911">
			 <ele>146</ele>
			<time>2015-11-18T16:57:13Z</time>
			</trkpt>
		
			<trkpt lat="49.61188" lon="-1.68962">
			 <ele>147</ele>
			<time>2015-11-18T16:59:13Z</time>
			</trkpt>
		
			<trkpt lat="49.61169" lon="-1.68995">
			 <ele>147</ele>
			<time>2015-11-18T17:01:13Z</time>
			</trkpt>
		
			<trkpt lat="49.61149" lon="-1.6902">
			 <ele>147</ele>
			<time>2015-11-18T17:03:13Z</time>
			</trkpt>
		
			<trkpt lat="49.61125" lon="-1.69045">
			 <ele>148</ele>
			<time>2015-11-18T17:05:13Z</time>
			</trkpt>
		
			<trkpt lat="49.61106" lon="-1.69067">
			 <ele>148</ele>
			<time>2015-11-18T17:07:13Z</time>
			</trkpt>
		
			<trkpt lat="49.61069" lon="-1.69097">
			 <ele>150</ele>
			<time>2015-11-18T17:09:13Z</time>
			</trkpt>
		
			<trkpt lat="49.61022" lon="-1.69126">
			 <ele>153</ele>
			<time>2015-11-18T17:11:13Z</time>
			</trkpt>
		
			<trkpt lat="49.60999" lon="-1.69152">
			 <ele>155</ele>
			<time>2015-11-18T17:13:13Z</time>
			</trkpt>
		
			<trkpt lat="49.60988" lon="-1.6917">
			 <ele>157</ele>
			<time>2015-11-18T17:15:13Z</time>
			</trkpt>
		
			<trkpt lat="49.60936" lon="-1.69175">
			 <ele>161</ele>
			<time>2015-11-18T17:17:13Z</time>
			</trkpt>
		
			<trkpt lat="49.60916" lon="-1.69184">
			 <ele>163</ele>
			<time>2015-11-18T17:19:13Z</time>
			</trkpt>
		
			<trkpt lat="49.60905" lon="-1.69195">
			 <ele>163</ele>
			<time>2015-11-18T17:21:13Z</time>
			</trkpt>
		
			<trkpt lat="49.60878" lon="-1.69229">
			 <ele>166</ele>
			<time>2015-11-18T17:23:13Z</time>
			</trkpt>
		
			<trkpt lat="49.60849" lon="-1.6927">
			 <ele>167</ele>
			<time>2015-11-18T17:25:13Z</time>
			</trkpt>
		
			<trkpt lat="49.6077" lon="-1.69362">
			 <ele>168</ele>
			<time>2015-11-18T17:27:13Z</time>
			</trkpt>
		
			<trkpt lat="49.60722" lon="-1.69425">
			 <ele>168</ele>
			<time>2015-11-18T17:29:13Z</time>
			</trkpt>
		
			<trkpt lat="49.60686" lon="-1.69482">
			 <ele>166</ele>
			<time>2015-11-18T17:31:13Z</time>
			</trkpt>
		
			<trkpt lat="49.60645" lon="-1.69553">
			 <ele>162</ele>
			<time>2015-11-18T17:33:13Z</time>
			</trkpt>
		
			<trkpt lat="49.6063" lon="-1.69576">
			 <ele>161</ele>
			<time>2015-11-18T17:35:13Z</time>
			</trkpt>
		
			<trkpt lat="49.60612" lon="-1.69599">
			 <ele>159</ele>
			<time>2015-11-18T17:37:13Z</time>
			</trkpt>
		
			<trkpt lat="49.60585" lon="-1.69625">
			 <ele>158</ele>
			<time>2015-11-18T17:39:13Z</time>
			</trkpt>
		
			<trkpt lat="49.60556" lon="-1.69649">
			 <ele>156</ele>
			<time>2015-11-18T17:41:13Z</time>
			</trkpt>
		
			<trkpt lat="49.60531" lon="-1.69673">
			 <ele>154</ele>
			<time>2015-11-18T17:43:13Z</time>
			</trkpt>
		
			<trkpt lat="49.60439" lon="-1.69762">
			 <ele>149</ele>
			<time>2015-11-18T17:45:13Z</time>
			</trkpt>
		
			<trkpt lat="49.60383" lon="-1.69816">
			 <ele>146</ele>
			<time>2015-11-18T17:47:13Z</time>
			</trkpt>
		
			<trkpt lat="49.60361" lon="-1.69834">
			 <ele>145</ele>
			<time>2015-11-18T17:49:13Z</time>
			</trkpt>
		
			<trkpt lat="49.6033" lon="-1.69853">
			 <ele>144</ele>
			<time>2015-11-18T17:51:13Z</time>
			</trkpt>
		
			<trkpt lat="49.60305" lon="-1.69866">
			 <ele>142</ele>
			<time>2015-11-18T17:53:13Z</time>
			</trkpt>
		
			<trkpt lat="49.60296" lon="-1.69869">
			 <ele>142</ele>
			<time>2015-11-18T17:55:13Z</time>
			</trkpt>
		
			<trkpt lat="49.60278" lon="-1.6987">
			 <ele>141</ele>
			<time>2015-11-18T17:57:13Z</time>
			</trkpt>
		
			<trkpt lat="49.60235" lon="-1.69861">
			 <ele>139</ele>
			<time>2015-11-18T17:59:13Z</time>
			</trkpt>
		
			<trkpt lat="49.60208" lon="-1.69858">
			 <ele>137</ele>
			<time>2015-11-18T18:01:13Z</time>
			</trkpt>
		
			<trkpt lat="49.60199" lon="-1.69859">
			 <ele>137</ele>
			<time>2015-11-18T18:03:13Z</time>
			</trkpt>
		
			<trkpt lat="49.60198" lon="-1.69868">
			 <ele>137</ele>
			<time>2015-11-18T18:05:13Z</time>
			</trkpt>
		
			<trkpt lat="49.60195" lon="-1.69875">
			 <ele>136</ele>
			<time>2015-11-18T18:07:13Z</time>
			</trkpt>
		
			<trkpt lat="49.60187" lon="-1.69883">
			 <ele>136</ele>
			<time>2015-11-18T18:09:13Z</time>
			</trkpt>
		
			<trkpt lat="49.60159" lon="-1.69906">
			 <ele>134</ele>
			<time>2015-11-18T18:11:13Z</time>
			</trkpt>
		
			<trkpt lat="49.60088" lon="-1.70001">
			 <ele>129</ele>
			<time>2015-11-18T18:13:13Z</time>
			</trkpt>
		
			<trkpt lat="49.60069" lon="-1.7003">
			 <ele>127</ele>
			<time>2015-11-18T18:15:13Z</time>
			</trkpt>
		
			<trkpt lat="49.6003" lon="-1.70097">
			 <ele>125</ele>
			<time>2015-11-18T18:17:13Z</time>
			</trkpt>
		
			<trkpt lat="49.60016" lon="-1.70115">
			 <ele>124</ele>
			<time>2015-11-18T18:19:13Z</time>
			</trkpt>
		
			<trkpt lat="49.60007" lon="-1.70126">
			 <ele>124</ele>
			<time>2015-11-18T18:21:13Z</time>
			</trkpt>
		
			<trkpt lat="49.59995" lon="-1.70143">
			 <ele>123</ele>
			<time>2015-11-18T18:23:13Z</time>
			</trkpt>
		
			<trkpt lat="49.59983" lon="-1.70158">
			 <ele>123</ele>
			<time>2015-11-18T18:25:13Z</time>
			</trkpt>
		
			<trkpt lat="49.59936" lon="-1.70232">
			 <ele>120</ele>
			<time>2015-11-18T18:27:13Z</time>
			</trkpt>
		
			<trkpt lat="49.5993" lon="-1.7024">
			 <ele>119</ele>
			<time>2015-11-18T18:29:13Z</time>
			</trkpt>
		
			<trkpt lat="49.59893" lon="-1.7028">
			 <ele>117</ele>
			<time>2015-11-18T18:31:13Z</time>
			</trkpt>
		
			<trkpt lat="49.5984" lon="-1.70314">
			 <ele>115</ele>
			<time>2015-11-18T18:33:13Z</time>
			</trkpt>
		
			<trkpt lat="49.59783" lon="-1.70361">
			 <ele>112</ele>
			<time>2015-11-18T18:35:13Z</time>
			</trkpt>
		
			<trkpt lat="49.59745" lon="-1.70399">
			 <ele>109</ele>
			<time>2015-11-18T18:37:13Z</time>
			</trkpt>
		
			<trkpt lat="49.59713" lon="-1.70437">
			 <ele>105</ele>
			<time>2015-11-18T18:39:13Z</time>
			</trkpt>
		
			<trkpt lat="49.5969" lon="-1.7046">
			 <ele>104</ele>
			<time>2015-11-18T18:41:13Z</time>
			</trkpt>
		
			<trkpt lat="49.59672" lon="-1.70476">
			 <ele>103</ele>
			<time>2015-11-18T18:43:13Z</time>
			</trkpt>
		
			<trkpt lat="49.59658" lon="-1.70481">
			 <ele>102</ele>
			<time>2015-11-18T18:45:13Z</time>
			</trkpt>
		
			<trkpt lat="49.59646" lon="-1.70479">
			 <ele>101</ele>
			<time>2015-11-18T18:47:13Z</time>
			</trkpt>
		
			<trkpt lat="49.59621" lon="-1.7046">
			 <ele>100</ele>
			<time>2015-11-18T18:49:13Z</time>
			</trkpt>
		
			<trkpt lat="49.59611" lon="-1.70446">
			 <ele>99</ele>
			<time>2015-11-18T18:51:13Z</time>
			</trkpt>
		
			<trkpt lat="49.59613" lon="-1.70436">
			 <ele>100</ele>
			<time>2015-11-18T18:53:13Z</time>
			</trkpt>
		
			<trkpt lat="49.59614" lon="-1.70427">
			 <ele>101</ele>
			<time>2015-11-18T18:55:13Z</time>
			</trkpt>
		
			<trkpt lat="49.59613" lon="-1.7042">
			 <ele>101</ele>
			<time>2015-11-18T18:57:13Z</time>
			</trkpt>
		
			<trkpt lat="49.59611" lon="-1.70412">
			 <ele>102</ele>
			<time>2015-11-18T18:59:13Z</time>
			</trkpt>
		
			<trkpt lat="49.59592" lon="-1.70382">
			 <ele>102</ele>
			<time>2015-11-18T19:01:13Z</time>
			</trkpt>
		
			<trkpt lat="49.59566" lon="-1.70344">
			 <ele>103</ele>
			<time>2015-11-18T19:03:13Z</time>
			</trkpt>
		
			<trkpt lat="49.59537" lon="-1.70307">
			 <ele>104</ele>
			<time>2015-11-18T19:05:13Z</time>
			</trkpt>
		
			<trkpt lat="49.59501" lon="-1.70266">
			 <ele>105</ele>
			<time>2015-11-18T19:07:13Z</time>
			</trkpt>
		
			<trkpt lat="49.59477" lon="-1.70241">
			 <ele>104</ele>
			<time>2015-11-18T19:09:13Z</time>
			</trkpt>
		
			<trkpt lat="49.59468" lon="-1.70236">
			 <ele>103</ele>
			<time>2015-11-18T19:11:13Z</time>
			</trkpt>
		
			<trkpt lat="49.59449" lon="-1.70229">
			 <ele>101</ele>
			<time>2015-11-18T19:13:13Z</time>
			</trkpt>
		
			<trkpt lat="49.59425" lon="-1.70223">
			 <ele>98</ele>
			<time>2015-11-18T19:15:13Z</time>
			</trkpt>
		
			<trkpt lat="49.59417" lon="-1.70218">
			 <ele>97</ele>
			<time>2015-11-18T19:17:13Z</time>
			</trkpt>
		
			<trkpt lat="49.59412" lon="-1.70212">
			 <ele>97</ele>
			<time>2015-11-18T19:19:13Z</time>
			</trkpt>
		
			<trkpt lat="49.5937" lon="-1.70124">
			 <ele>97</ele>
			<time>2015-11-18T19:21:13Z</time>
			</trkpt>
		
			<trkpt lat="49.59349" lon="-1.70086">
			 <ele>96</ele>
			<time>2015-11-18T19:23:13Z</time>
			</trkpt>
		
			<trkpt lat="49.59324" lon="-1.70032">
			 <ele>94</ele>
			<time>2015-11-18T19:25:13Z</time>
			</trkpt>
		
			<trkpt lat="49.59317" lon="-1.70025">
			 <ele>93</ele>
			<time>2015-11-18T19:27:13Z</time>
			</trkpt>
		
			<trkpt lat="49.59325" lon="-1.70006">
			 <ele>94</ele>
			<time>2015-11-18T19:29:13Z</time>
			</trkpt>
		
			<trkpt lat="49.59337" lon="-1.69978">
			 <ele>96</ele>
			<time>2015-11-18T19:31:13Z</time>
			</trkpt>
		
			<trkpt lat="49.59351" lon="-1.69951">
			 <ele>97</ele>
			<time>2015-11-18T19:33:13Z</time>
			</trkpt>
		
			<trkpt lat="49.59361" lon="-1.69936">
			 <ele>98</ele>
			<time>2015-11-18T19:35:13Z</time>
			</trkpt>
		
			<trkpt lat="49.59342" lon="-1.69925">
			 <ele>95</ele>
			<time>2015-11-18T19:37:13Z</time>
			</trkpt>
		
			<trkpt lat="49.59323" lon="-1.69911">
			 <ele>92</ele>
			<time>2015-11-18T19:39:13Z</time>
			</trkpt>
		
			<trkpt lat="49.59302" lon="-1.69898">
			 <ele>89</ele>
			<time>2015-11-18T19:41:13Z</time>
			</trkpt>
		
			<trkpt lat="49.59233" lon="-1.6987">
			 <ele>80</ele>
			<time>2015-11-18T19:43:13Z</time>
			</trkpt>
		
			<trkpt lat="49.59189" lon="-1.69855">
			 <ele>75</ele>
			<time>2015-11-18T19:45:13Z</time>
			</trkpt>
		
			<trkpt lat="49.59162" lon="-1.69851">
			 <ele>72</ele>
			<time>2015-11-18T19:47:13Z</time>
			</trkpt>
		
			<trkpt lat="49.59158" lon="-1.69854">
			 <ele>71</ele>
			<time>2015-11-18T19:49:13Z</time>
			</trkpt>
		
			<trkpt lat="49.59156" lon="-1.6986">
			 <ele>71</ele>
			<time>2015-11-18T19:51:13Z</time>
			</trkpt>
		
			<trkpt lat="49.59154" lon="-1.69867">
			 <ele>71</ele>
			<time>2015-11-18T19:53:13Z</time>
			</trkpt>
		
			<trkpt lat="49.59135" lon="-1.69869">
			 <ele>69</ele>
			<time>2015-11-18T19:55:13Z</time>
			</trkpt>
		
			<trkpt lat="49.5912" lon="-1.69874">
			 <ele>67</ele>
			<time>2015-11-18T19:57:13Z</time>
			</trkpt>
		
			<trkpt lat="49.59053" lon="-1.69877">
			 <ele>59</ele>
			<time>2015-11-18T19:59:13Z</time>
			</trkpt>
		
			<trkpt lat="49.5904" lon="-1.69951">
			 <ele>59</ele>
			<time>2015-11-18T20:01:13Z</time>
			</trkpt>
		
			<trkpt lat="49.59025" lon="-1.69905">
			 <ele>57</ele>
			<time>2015-11-18T20:03:13Z</time>
			</trkpt>
		
			<trkpt lat="49.59006" lon="-1.69845">
			 <ele>54</ele>
			<time>2015-11-18T20:05:13Z</time>
			</trkpt>
		
			<trkpt lat="49.58988" lon="-1.69795">
			 <ele>51</ele>
			<time>2015-11-18T20:07:13Z</time>
			</trkpt>
		
			<trkpt lat="49.58978" lon="-1.69758">
			 <ele>49</ele>
			<time>2015-11-18T20:09:13Z</time>
			</trkpt>
		
			<trkpt lat="49.58971" lon="-1.69725">
			 <ele>47</ele>
			<time>2015-11-18T20:11:13Z</time>
			</trkpt>
		
			<trkpt lat="49.58968" lon="-1.69715">
			 <ele>47</ele>
			<time>2015-11-18T20:13:13Z</time>
			</trkpt>
		
			<trkpt lat="49.58953" lon="-1.69673">
			 <ele>44</ele>
			<time>2015-11-18T20:15:13Z</time>
			</trkpt>
		
			<trkpt lat="49.5894" lon="-1.69626">
			 <ele>41</ele>
			<time>2015-11-18T20:17:13Z</time>
			</trkpt>
		
			<trkpt lat="49.58931" lon="-1.69586">
			 <ele>39</ele>
			<time>2015-11-18T20:19:13Z</time>
			</trkpt>
		
			<trkpt lat="49.58924" lon="-1.69537">
			 <ele>36</ele>
			<time>2015-11-18T20:21:13Z</time>
			</trkpt>
		
			<trkpt lat="49.58915" lon="-1.69499">
			 <ele>33</ele>
			<time>2015-11-18T20:23:13Z</time>
			</trkpt>
		
			<trkpt lat="49.58903" lon="-1.69465">
			 <ele>31</ele>
			<time>2015-11-18T20:25:13Z</time>
			</trkpt>
		
			<trkpt lat="49.58891" lon="-1.69443">
			 <ele>30</ele>
			<time>2015-11-18T20:27:13Z</time>
			</trkpt>
		
			<trkpt lat="49.58847" lon="-1.69389">
			 <ele>28</ele>
			<time>2015-11-18T20:29:13Z</time>
			</trkpt>
		
			<trkpt lat="49.58787" lon="-1.69315">
			 <ele>32</ele>
			<time>2015-11-18T20:31:13Z</time>
			</trkpt>
		
			<trkpt lat="49.58758" lon="-1.69278">
			 <ele>34</ele>
			<time>2015-11-18T20:33:13Z</time>
			</trkpt>
		
			<trkpt lat="49.58732" lon="-1.69244">
			 <ele>35</ele>
			<time>2015-11-18T20:35:13Z</time>
			</trkpt>
		
			<trkpt lat="49.58703" lon="-1.69208">
			 <ele>36</ele>
			<time>2015-11-18T20:37:13Z</time>
			</trkpt>
		
			<trkpt lat="49.58657" lon="-1.6913">
			 <ele>38</ele>
			<time>2015-11-18T20:39:13Z</time>
			</trkpt>
		
			<trkpt lat="49.58635" lon="-1.69094">
			 <ele>39</ele>
			<time>2015-11-18T20:41:13Z</time>
			</trkpt>
		
			<trkpt lat="49.58609" lon="-1.69059">
			 <ele>42</ele>
			<time>2015-11-18T20:43:13Z</time>
			</trkpt>
		
			<trkpt lat="49.5858" lon="-1.69025">
			 <ele>45</ele>
			<time>2015-11-18T20:45:13Z</time>
			</trkpt>
		
			<trkpt lat="49.58553" lon="-1.69084">
			 <ele>45</ele>
			<time>2015-11-18T20:47:13Z</time>
			</trkpt>
		
			<trkpt lat="49.5854" lon="-1.69114">
			 <ele>44</ele>
			<time>2015-11-18T20:49:13Z</time>
			</trkpt>
		
			<trkpt lat="49.5853" lon="-1.69111">
			 <ele>45</ele>
			<time>2015-11-18T20:51:13Z</time>
			</trkpt>
		
			<trkpt lat="49.58452" lon="-1.69141">
			 <ele>48</ele>
			<time>2015-11-18T20:53:13Z</time>
			</trkpt>
		
			<trkpt lat="49.58432" lon="-1.69149">
			 <ele>49</ele>
			<time>2015-11-18T20:55:13Z</time>
			</trkpt>
		
			<trkpt lat="49.58414" lon="-1.69156">
			 <ele>50</ele>
			<time>2015-11-18T20:57:13Z</time>
			</trkpt>
		
			<trkpt lat="49.58387" lon="-1.69163">
			 <ele>51</ele>
			<time>2015-11-18T20:59:13Z</time>
			</trkpt>
		
			<trkpt lat="49.58351" lon="-1.69169">
			 <ele>52</ele>
			<time>2015-11-18T21:01:13Z</time>
			</trkpt>
		
			<trkpt lat="49.58188" lon="-1.69184">
			 <ele>55</ele>
			<time>2015-11-18T21:03:13Z</time>
			</trkpt>
		
			<trkpt lat="49.58154" lon="-1.69186">
			 <ele>56</ele>
			<time>2015-11-18T21:05:13Z</time>
			</trkpt>
		
			<trkpt lat="49.58131" lon="-1.69185">
			 <ele>56</ele>
			<time>2015-11-18T21:07:13Z</time>
			</trkpt>
		
			<trkpt lat="49.58112" lon="-1.69177">
			 <ele>56</ele>
			<time>2015-11-18T21:09:13Z</time>
			</trkpt>
		
			<trkpt lat="49.58094" lon="-1.69166">
			 <ele>56</ele>
			<time>2015-11-18T21:11:13Z</time>
			</trkpt>
		
			<trkpt lat="49.58079" lon="-1.69153">
			 <ele>56</ele>
			<time>2015-11-18T21:13:13Z</time>
			</trkpt>
		
			<trkpt lat="49.58074" lon="-1.69167">
			 <ele>56</ele>
			<time>2015-11-18T21:15:13Z</time>
			</trkpt>
		
			<trkpt lat="49.58059" lon="-1.69193">
			 <ele>54</ele>
			<time>2015-11-18T21:17:13Z</time>
			</trkpt>
		
			<trkpt lat="49.58037" lon="-1.69226">
			 <ele>51</ele>
			<time>2015-11-18T21:19:13Z</time>
			</trkpt>
		
			<trkpt lat="49.58018" lon="-1.69257">
			 <ele>48</ele>
			<time>2015-11-18T21:21:13Z</time>
			</trkpt>
		
			<trkpt lat="49.58" lon="-1.69291">
			 <ele>46</ele>
			<time>2015-11-18T21:23:13Z</time>
			</trkpt>
		
			<trkpt lat="49.57977" lon="-1.69326">
			 <ele>45</ele>
			<time>2015-11-18T21:25:13Z</time>
			</trkpt>
		
			<trkpt lat="49.5797" lon="-1.69348">
			 <ele>44</ele>
			<time>2015-11-18T21:27:13Z</time>
			</trkpt>
		
			<trkpt lat="49.57962" lon="-1.69368">
			 <ele>44</ele>
			<time>2015-11-18T21:29:13Z</time>
			</trkpt>
		
			<trkpt lat="49.57949" lon="-1.69386">
			 <ele>44</ele>
			<time>2015-11-18T21:31:13Z</time>
			</trkpt>
		
			<trkpt lat="49.57944" lon="-1.69397">
			 <ele>44</ele>
			<time>2015-11-18T21:33:13Z</time>
			</trkpt>
		
			<trkpt lat="49.57941" lon="-1.69404">
			 <ele>45</ele>
			<time>2015-11-18T21:35:13Z</time>
			</trkpt>
		
			<trkpt lat="49.5794" lon="-1.69409">
			 <ele>45</ele>
			<time>2015-11-18T21:37:13Z</time>
			</trkpt>
		
			<trkpt lat="49.57942" lon="-1.69428">
			 <ele>45</ele>
			<time>2015-11-18T21:39:13Z</time>
			</trkpt>
		
			<trkpt lat="49.57941" lon="-1.69449">
			 <ele>46</ele>
			<time>2015-11-18T21:41:13Z</time>
			</trkpt>
		
			<trkpt lat="49.5793" lon="-1.69479">
			 <ele>48</ele>
			<time>2015-11-18T21:43:13Z</time>
			</trkpt>
		
			<trkpt lat="49.57899" lon="-1.69551">
			 <ele>53</ele>
			<time>2015-11-18T21:45:13Z</time>
			</trkpt>
		
			<trkpt lat="49.57879" lon="-1.69608">
			 <ele>55</ele>
			<time>2015-11-18T21:47:13Z</time>
			</trkpt>
		
			<trkpt lat="49.57866" lon="-1.69634">
			 <ele>55</ele>
			<time>2015-11-18T21:49:13Z</time>
			</trkpt>
		
			<trkpt lat="49.57851" lon="-1.69671">
			 <ele>55</ele>
			<time>2015-11-18T21:51:13Z</time>
			</trkpt>
		
			<trkpt lat="49.57847" lon="-1.6968">
			 <ele>55</ele>
			<time>2015-11-18T21:53:13Z</time>
			</trkpt>
		
			<trkpt lat="49.57842" lon="-1.69691">
			 <ele>55</ele>
			<time>2015-11-18T21:55:13Z</time>
			</trkpt>
		
			<trkpt lat="49.57834" lon="-1.69709">
			 <ele>54</ele>
			<time>2015-11-18T21:57:13Z</time>
			</trkpt>
		
			<trkpt lat="49.57807" lon="-1.6978">
			 <ele>54</ele>
			<time>2015-11-18T21:59:13Z</time>
			</trkpt>
		
			<trkpt lat="49.57771" lon="-1.6986">
			 <ele>52</ele>
			<time>2015-11-18T22:01:13Z</time>
			</trkpt>
		
			<trkpt lat="49.57754" lon="-1.69904">
			 <ele>51</ele>
			<time>2015-11-18T22:03:13Z</time>
			</trkpt>
		
			<trkpt lat="49.5774" lon="-1.69935">
			 <ele>51</ele>
			<time>2015-11-18T22:05:13Z</time>
			</trkpt>
		
			<trkpt lat="49.57734" lon="-1.69954">
			 <ele>50</ele>
			<time>2015-11-18T22:07:13Z</time>
			</trkpt>
		
			<trkpt lat="49.57728" lon="-1.6997">
			 <ele>50</ele>
			<time>2015-11-18T22:09:13Z</time>
			</trkpt>
		
			<trkpt lat="49.57707" lon="-1.70023">
			 <ele>49</ele>
			<time>2015-11-18T22:11:13Z</time>
			</trkpt>
		
			<trkpt lat="49.577" lon="-1.70061">
			 <ele>48</ele>
			<time>2015-11-18T22:13:13Z</time>
			</trkpt>
		
			<trkpt lat="49.57686" lon="-1.70123">
			 <ele>49</ele>
			<time>2015-11-18T22:15:13Z</time>
			</trkpt>
		
			<trkpt lat="49.57676" lon="-1.70146">
			 <ele>49</ele>
			<time>2015-11-18T22:17:13Z</time>
			</trkpt>
		
			<trkpt lat="49.57688" lon="-1.70156">
			 <ele>49</ele>
			<time>2015-11-18T22:19:13Z</time>
			</trkpt>
		
			<trkpt lat="49.57702" lon="-1.70172">
			 <ele>49</ele>
			<time>2015-11-18T22:21:13Z</time>
			</trkpt>
		
			<trkpt lat="49.57713" lon="-1.70183">
			 <ele>49</ele>
			<time>2015-11-18T22:23:13Z</time>
			</trkpt>
		
			<trkpt lat="49.57701" lon="-1.70226">
			 <ele>50</ele>
			<time>2015-11-18T22:25:13Z</time>
			</trkpt>
		
			<trkpt lat="49.57595" lon="-1.70489">
			 <ele>50</ele>
			<time>2015-11-18T22:27:13Z</time>
			</trkpt>
		
			<trkpt lat="49.57589" lon="-1.70505">
			 <ele>51</ele>
			<time>2015-11-18T22:29:13Z</time>
			</trkpt>
		
			<trkpt lat="49.57578" lon="-1.70497">
			 <ele>51</ele>
			<time>2015-11-18T22:31:13Z</time>
			</trkpt>
		
			<trkpt lat="49.57578" lon="-1.70515">
			 <ele>51</ele>
			<time>2015-11-18T22:33:13Z</time>
			</trkpt>
		
			<trkpt lat="49.57577" lon="-1.70522">
			 <ele>51</ele>
			<time>2015-11-18T22:35:13Z</time>
			</trkpt>
		
			<trkpt lat="49.57576" lon="-1.70532">
			 <ele>52</ele>
			<time>2015-11-18T22:37:13Z</time>
			</trkpt>
		
			<trkpt lat="49.57575" lon="-1.70535">
			 <ele>52</ele>
			<time>2015-11-18T22:39:13Z</time>
			</trkpt>
		
			<trkpt lat="49.57574" lon="-1.70542">
			 <ele>52</ele>
			<time>2015-11-18T22:41:13Z</time>
			</trkpt>
		
			<trkpt lat="49.57573" lon="-1.70548">
			 <ele>52</ele>
			<time>2015-11-18T22:43:13Z</time>
			</trkpt>
		
			<trkpt lat="49.57573" lon="-1.70553">
			 <ele>52</ele>
			<time>2015-11-18T22:45:13Z</time>
			</trkpt>
		
			<trkpt lat="49.57573" lon="-1.70559">
			 <ele>52</ele>
			<time>2015-11-18T22:47:13Z</time>
			</trkpt>
		
			<trkpt lat="49.57574" lon="-1.70563">
			 <ele>52</ele>
			<time>2015-11-18T22:49:13Z</time>
			</trkpt>
		
			<trkpt lat="49.57575" lon="-1.70568">
			 <ele>52</ele>
			<time>2015-11-18T22:51:13Z</time>
			</trkpt>
		
			<trkpt lat="49.57578" lon="-1.70575">
			 <ele>52</ele>
			<time>2015-11-18T22:53:13Z</time>
			</trkpt>
		
			<trkpt lat="49.57588" lon="-1.70593">
			 <ele>52</ele>
			<time>2015-11-18T22:55:13Z</time>
			</trkpt>
		
			<trkpt lat="49.57635" lon="-1.70691">
			 <ele>52</ele>
			<time>2015-11-18T22:57:13Z</time>
			</trkpt>
		
			<trkpt lat="49.57654" lon="-1.70725">
			 <ele>52</ele>
			<time>2015-11-18T22:59:13Z</time>
			</trkpt>
		
			<trkpt lat="49.57672" lon="-1.7075">
			 <ele>52</ele>
			<time>2015-11-18T23:01:13Z</time>
			</trkpt>
		
			<trkpt lat="49.57689" lon="-1.70768">
			 <ele>51</ele>
			<time>2015-11-18T23:03:13Z</time>
			</trkpt>
		
			<trkpt lat="49.57676" lon="-1.70792">
			 <ele>52</ele>
			<time>2015-11-18T23:05:13Z</time>
			</trkpt>
		
			<trkpt lat="49.57647" lon="-1.70862">
			 <ele>53</ele>
			<time>2015-11-18T23:07:13Z</time>
			</trkpt>
		
			<trkpt lat="49.57641" lon="-1.7087">
			 <ele>53</ele>
			<time>2015-11-18T23:09:13Z</time>
			</trkpt>
		
			<trkpt lat="49.57634" lon="-1.70871">
			 <ele>53</ele>
			<time>2015-11-18T23:11:13Z</time>
			</trkpt>
		
			<trkpt lat="49.57627" lon="-1.7087">
			 <ele>53</ele>
			<time>2015-11-18T23:13:13Z</time>
			</trkpt>
		
			<trkpt lat="49.5762" lon="-1.70874">
			 <ele>54</ele>
			<time>2015-11-18T23:15:13Z</time>
			</trkpt>
		
			<trkpt lat="49.57608" lon="-1.70885">
			 <ele>53</ele>
			<time>2015-11-18T23:17:13Z</time>
			</trkpt>
		
			<trkpt lat="49.57601" lon="-1.70894">
			 <ele>53</ele>
			<time>2015-11-18T23:19:13Z</time>
			</trkpt>
		
			<trkpt lat="49.57595" lon="-1.70904">
			 <ele>53</ele>
			<time>2015-11-18T23:21:13Z</time>
			</trkpt>
		
			<trkpt lat="49.57547" lon="-1.71038">
			 <ele>53</ele>
			<time>2015-11-18T23:23:13Z</time>
			</trkpt>
		
			<trkpt lat="49.57505" lon="-1.71142">
			 <ele>51</ele>
			<time>2015-11-18T23:25:13Z</time>
			</trkpt>
		
			<trkpt lat="49.57494" lon="-1.7116">
			 <ele>50</ele>
			<time>2015-11-18T23:27:13Z</time>
			</trkpt>
		
			<trkpt lat="49.57489" lon="-1.71167">
			 <ele>50</ele>
			<time>2015-11-18T23:29:13Z</time>
			</trkpt>
		
			<trkpt lat="49.57483" lon="-1.71171">
			 <ele>50</ele>
			<time>2015-11-18T23:31:13Z</time>
			</trkpt>
		
			<trkpt lat="49.57476" lon="-1.71171">
			 <ele>50</ele>
			<time>2015-11-18T23:33:13Z</time>
			</trkpt>
		
			<trkpt lat="49.57464" lon="-1.71189">
			 <ele>49</ele>
			<time>2015-11-18T23:35:13Z</time>
			</trkpt>
		
			<trkpt lat="49.57443" lon="-1.71227">
			 <ele>48</ele>
			<time>2015-11-18T23:37:13Z</time>
			</trkpt>
		
			<trkpt lat="49.57432" lon="-1.7124">
			 <ele>47</ele>
			<time>2015-11-18T23:39:13Z</time>
			</trkpt>
		
			<trkpt lat="49.5742" lon="-1.71246">
			 <ele>46</ele>
			<time>2015-11-18T23:41:13Z</time>
			</trkpt>
		
			<trkpt lat="49.57421" lon="-1.71289">
			 <ele>45</ele>
			<time>2015-11-18T23:43:13Z</time>
			</trkpt>
		
			<trkpt lat="49.57421" lon="-1.7132">
			 <ele>44</ele>
			<time>2015-11-18T23:45:13Z</time>
			</trkpt>
		
			<trkpt lat="49.57418" lon="-1.71343">
			 <ele>44</ele>
			<time>2015-11-18T23:47:13Z</time>
			</trkpt>
		
			<trkpt lat="49.57407" lon="-1.71341">
			 <ele>44</ele>
			<time>2015-11-18T23:49:13Z</time>
			</trkpt>
		
			<trkpt lat="49.57392" lon="-1.71345">
			 <ele>44</ele>
			<time>2015-11-18T23:51:13Z</time>
			</trkpt>
		
			<trkpt lat="49.57381" lon="-1.71351">
			 <ele>44</ele>
			<time>2015-11-18T23:53:13Z</time>
			</trkpt>
		
			<trkpt lat="49.57373" lon="-1.71359">
			 <ele>44</ele>
			<time>2015-11-18T23:55:13Z</time>
			</trkpt>
		
			<trkpt lat="49.5737" lon="-1.71368">
			 <ele>45</ele>
			<time>2015-11-18T23:57:13Z</time>
			</trkpt>
		
			<trkpt lat="49.57364" lon="-1.71411">
			 <ele>46</ele>
			<time>2015-11-18T23:59:13Z</time>
			</trkpt>
		
			<trkpt lat="49.57361" lon="-1.71422">
			 <ele>47</ele>
			<time>2015-11-19T00:01:13Z</time>
			</trkpt>
		
			<trkpt lat="49.57351" lon="-1.71451">
			 <ele>47</ele>
			<time>2015-11-19T00:03:13Z</time>
			</trkpt>
		
			<trkpt lat="49.57312" lon="-1.71562">
			 <ele>50</ele>
			<time>2015-11-19T00:05:13Z</time>
			</trkpt>
		
			<trkpt lat="49.57309" lon="-1.71598">
			 <ele>51</ele>
			<time>2015-11-19T00:07:13Z</time>
			</trkpt>
		
			<trkpt lat="49.57302" lon="-1.71619">
			 <ele>51</ele>
			<time>2015-11-19T00:09:13Z</time>
			</trkpt>
		
			<trkpt lat="49.57278" lon="-1.71679">
			 <ele>53</ele>
			<time>2015-11-19T00:11:13Z</time>
			</trkpt>
		
			<trkpt lat="49.57268" lon="-1.71715">
			 <ele>54</ele>
			<time>2015-11-19T00:13:13Z</time>
			</trkpt>
		
			<trkpt lat="49.57282" lon="-1.71719">
			 <ele>54</ele>
			<time>2015-11-19T00:15:13Z</time>
			</trkpt>
		
			<trkpt lat="49.57295" lon="-1.7172">
			 <ele>54</ele>
			<time>2015-11-19T00:17:13Z</time>
			</trkpt>
		
			<trkpt lat="49.57306" lon="-1.71725">
			 <ele>54</ele>
			<time>2015-11-19T00:19:13Z</time>
			</trkpt>
		
			<trkpt lat="49.57332" lon="-1.71743">
			 <ele>55</ele>
			<time>2015-11-19T00:21:13Z</time>
			</trkpt>
		
			<trkpt lat="49.57346" lon="-1.7176">
			 <ele>55</ele>
			<time>2015-11-19T00:23:13Z</time>
			</trkpt>
		
			<trkpt lat="49.57362" lon="-1.71778">
			 <ele>55</ele>
			<time>2015-11-19T00:25:13Z</time>
			</trkpt>
		
			<trkpt lat="49.57417" lon="-1.71845">
			 <ele>56</ele>
			<time>2015-11-19T00:27:13Z</time>
			</trkpt>
		
			<trkpt lat="49.57432" lon="-1.71867">
			 <ele>57</ele>
			<time>2015-11-19T00:29:13Z</time>
			</trkpt>
		
			<trkpt lat="49.57441" lon="-1.71881">
			 <ele>57</ele>
			<time>2015-11-19T00:31:13Z</time>
			</trkpt>
		
			<trkpt lat="49.5745" lon="-1.71899">
			 <ele>58</ele>
			<time>2015-11-19T00:33:13Z</time>
			</trkpt>
		
			<trkpt lat="49.57461" lon="-1.71924">
			 <ele>59</ele>
			<time>2015-11-19T00:35:13Z</time>
			</trkpt>
		
			<trkpt lat="49.57472" lon="-1.71943">
			 <ele>60</ele>
			<time>2015-11-19T00:37:13Z</time>
			</trkpt>
		
			<trkpt lat="49.5749" lon="-1.71967">
			 <ele>61</ele>
			<time>2015-11-19T00:39:13Z</time>
			</trkpt>
		
			<trkpt lat="49.57514" lon="-1.7199">
			 <ele>61</ele>
			<time>2015-11-19T00:41:13Z</time>
			</trkpt>
		
			<trkpt lat="49.57479" lon="-1.72106">
			 <ele>63</ele>
			<time>2015-11-19T00:43:13Z</time>
			</trkpt>
		
			<trkpt lat="49.5746" lon="-1.72169">
			 <ele>65</ele>
			<time>2015-11-19T00:45:13Z</time>
			</trkpt>
		
			<trkpt lat="49.57432" lon="-1.72296">
			 <ele>67</ele>
			<time>2015-11-19T00:47:13Z</time>
			</trkpt>
		
			<trkpt lat="49.5742" lon="-1.72332">
			 <ele>68</ele>
			<time>2015-11-19T00:49:13Z</time>
			</trkpt>
		
			<trkpt lat="49.5741" lon="-1.72355">
			 <ele>68</ele>
			<time>2015-11-19T00:51:13Z</time>
			</trkpt>
		
			<trkpt lat="49.57388" lon="-1.72413">
			 <ele>67</ele>
			<time>2015-11-19T00:53:13Z</time>
			</trkpt>
		
			<trkpt lat="49.57378" lon="-1.72431">
			 <ele>67</ele>
			<time>2015-11-19T00:55:13Z</time>
			</trkpt>
		
			<trkpt lat="49.57327" lon="-1.72467">
			 <ele>66</ele>
			<time>2015-11-19T00:57:13Z</time>
			</trkpt>
		
			<trkpt lat="49.57303" lon="-1.72479">
			 <ele>66</ele>
			<time>2015-11-19T00:59:13Z</time>
			</trkpt>
		
			<trkpt lat="49.57269" lon="-1.72492">
			 <ele>67</ele>
			<time>2015-11-19T01:01:13Z</time>
			</trkpt>
		
			<trkpt lat="49.57243" lon="-1.72499">
			 <ele>67</ele>
			<time>2015-11-19T01:03:13Z</time>
			</trkpt>
		
			<trkpt lat="49.57208" lon="-1.72507">
			 <ele>67</ele>
			<time>2015-11-19T01:05:13Z</time>
			</trkpt>
		
			<trkpt lat="49.5717" lon="-1.7252">
			 <ele>67</ele>
			<time>2015-11-19T01:07:13Z</time>
			</trkpt>
		
			<trkpt lat="49.57127" lon="-1.72532">
			 <ele>66</ele>
			<time>2015-11-19T01:09:13Z</time>
			</trkpt>
		
			<trkpt lat="49.57092" lon="-1.72545">
			 <ele>65</ele>
			<time>2015-11-19T01:11:13Z</time>
			</trkpt>
		
			<trkpt lat="49.57018" lon="-1.72571">
			 <ele>62</ele>
			<time>2015-11-19T01:13:13Z</time>
			</trkpt>
		
			<trkpt lat="49.57003" lon="-1.7258">
			 <ele>61</ele>
			<time>2015-11-19T01:15:13Z</time>
			</trkpt>
		
			<trkpt lat="49.56997" lon="-1.72574">
			 <ele>61</ele>
			<time>2015-11-19T01:17:13Z</time>
			</trkpt>
		
			<trkpt lat="49.56976" lon="-1.72556">
			 <ele>60</ele>
			<time>2015-11-19T01:19:13Z</time>
			</trkpt>
		
			<trkpt lat="49.56944" lon="-1.72526">
			 <ele>60</ele>
			<time>2015-11-19T01:21:13Z</time>
			</trkpt>
		
			<trkpt lat="49.56931" lon="-1.7255">
			 <ele>60</ele>
			<time>2015-11-19T01:23:13Z</time>
			</trkpt>
		
			<trkpt lat="49.56904" lon="-1.72602">
			 <ele>61</ele>
			<time>2015-11-19T01:25:13Z</time>
			</trkpt>
		
			<trkpt lat="49.5691" lon="-1.72607">
			 <ele>61</ele>
			<time>2015-11-19T01:27:13Z</time>
			</trkpt>
		
			<trkpt lat="49.56921" lon="-1.72613">
			 <ele>60</ele>
			<time>2015-11-19T01:29:13Z</time>
			</trkpt>
		
			<trkpt lat="49.56924" lon="-1.72617">
			 <ele>61</ele>
			<time>2015-11-19T01:31:13Z</time>
			</trkpt>
		
			<trkpt lat="49.56927" lon="-1.72624">
			 <ele>61</ele>
			<time>2015-11-19T01:33:13Z</time>
			</trkpt>
		
			<trkpt lat="49.56929" lon="-1.72634">
			 <ele>61</ele>
			<time>2015-11-19T01:35:13Z</time>
			</trkpt>
		
			<trkpt lat="49.56933" lon="-1.72686">
			 <ele>62</ele>
			<time>2015-11-19T01:37:13Z</time>
			</trkpt>
		
			<trkpt lat="49.56934" lon="-1.72717">
			 <ele>63</ele>
			<time>2015-11-19T01:39:13Z</time>
			</trkpt>
		
			<trkpt lat="49.56933" lon="-1.72752">
			 <ele>64</ele>
			<time>2015-11-19T01:41:13Z</time>
			</trkpt>
		
			<trkpt lat="49.56931" lon="-1.72784">
			 <ele>65</ele>
			<time>2015-11-19T01:43:13Z</time>
			</trkpt>
		
			<trkpt lat="49.5693" lon="-1.72846">
			 <ele>67</ele>
			<time>2015-11-19T01:45:13Z</time>
			</trkpt>
		
			<trkpt lat="49.5693" lon="-1.72868">
			 <ele>68</ele>
			<time>2015-11-19T01:47:13Z</time>
			</trkpt>
		
			<trkpt lat="49.5693" lon="-1.72938">
			 <ele>70</ele>
			<time>2015-11-19T01:49:13Z</time>
			</trkpt>
		
			<trkpt lat="49.56929" lon="-1.72981">
			 <ele>71</ele>
			<time>2015-11-19T01:51:13Z</time>
			</trkpt>
		
			<trkpt lat="49.56926" lon="-1.73027">
			 <ele>72</ele>
			<time>2015-11-19T01:53:13Z</time>
			</trkpt>
		
			<trkpt lat="49.56918" lon="-1.73087">
			 <ele>73</ele>
			<time>2015-11-19T01:55:13Z</time>
			</trkpt>
		
			<trkpt lat="49.5691" lon="-1.73118">
			 <ele>73</ele>
			<time>2015-11-19T01:57:13Z</time>
			</trkpt>
		
			<trkpt lat="49.569" lon="-1.7315">
			 <ele>73</ele>
			<time>2015-11-19T01:59:13Z</time>
			</trkpt>
		
			<trkpt lat="49.5687" lon="-1.73235">
			 <ele>72</ele>
			<time>2015-11-19T02:01:13Z</time>
			</trkpt>
		
			<trkpt lat="49.56823" lon="-1.73361">
			 <ele>72</ele>
			<time>2015-11-19T02:03:13Z</time>
			</trkpt>
		
			<trkpt lat="49.56813" lon="-1.73386">
			 <ele>71</ele>
			<time>2015-11-19T02:05:13Z</time>
			</trkpt>
		
			<trkpt lat="49.56782" lon="-1.73442">
			 <ele>70</ele>
			<time>2015-11-19T02:07:13Z</time>
			</trkpt>
		
			<trkpt lat="49.5677" lon="-1.73471">
			 <ele>70</ele>
			<time>2015-11-19T02:09:13Z</time>
			</trkpt>
		
			<trkpt lat="49.56759" lon="-1.73492">
			 <ele>70</ele>
			<time>2015-11-19T02:11:13Z</time>
			</trkpt>
		
			<trkpt lat="49.56708" lon="-1.73563">
			 <ele>67</ele>
			<time>2015-11-19T02:13:13Z</time>
			</trkpt>
		
			<trkpt lat="49.5669" lon="-1.73587">
			 <ele>65</ele>
			<time>2015-11-19T02:15:13Z</time>
			</trkpt>
		
			<trkpt lat="49.56688" lon="-1.73592">
			 <ele>65</ele>
			<time>2015-11-19T02:17:13Z</time>
			</trkpt>
		
			<trkpt lat="49.56677" lon="-1.73606">
			 <ele>65</ele>
			<time>2015-11-19T02:19:13Z</time>
			</trkpt>
		
			<trkpt lat="49.56666" lon="-1.73622">
			 <ele>64</ele>
			<time>2015-11-19T02:21:13Z</time>
			</trkpt>
		
			<trkpt lat="49.56651" lon="-1.73651">
			 <ele>63</ele>
			<time>2015-11-19T02:23:13Z</time>
			</trkpt>
		
			<trkpt lat="49.56649" lon="-1.73655">
			 <ele>63</ele>
			<time>2015-11-19T02:25:13Z</time>
			</trkpt>
		
			<trkpt lat="49.56644" lon="-1.73664">
			 <ele>62</ele>
			<time>2015-11-19T02:27:13Z</time>
			</trkpt>
		
			<trkpt lat="49.56638" lon="-1.73679">
			 <ele>62</ele>
			<time>2015-11-19T02:29:13Z</time>
			</trkpt>
		
			<trkpt lat="49.56629" lon="-1.73694">
			 <ele>62</ele>
			<time>2015-11-19T02:31:13Z</time>
			</trkpt>
		
			<trkpt lat="49.56621" lon="-1.73701">
			 <ele>62</ele>
			<time>2015-11-19T02:33:13Z</time>
			</trkpt>
		
			<trkpt lat="49.56613" lon="-1.73702">
			 <ele>62</ele>
			<time>2015-11-19T02:35:13Z</time>
			</trkpt>
		
			<trkpt lat="49.56611" lon="-1.73702">
			 <ele>62</ele>
			<time>2015-11-19T02:37:13Z</time>
			</trkpt>
		
			<trkpt lat="49.56607" lon="-1.73697">
			 <ele>62</ele>
			<time>2015-11-19T02:39:13Z</time>
			</trkpt>
		
			<trkpt lat="49.56581" lon="-1.73647">
			 <ele>64</ele>
			<time>2015-11-19T02:41:13Z</time>
			</trkpt>
		
			<trkpt lat="49.56559" lon="-1.73625">
			 <ele>65</ele>
			<time>2015-11-19T02:43:13Z</time>
			</trkpt>
		
			<trkpt lat="49.56543" lon="-1.73616">
			 <ele>66</ele>
			<time>2015-11-19T02:45:13Z</time>
			</trkpt>
		
			<trkpt lat="49.56518" lon="-1.73607">
			 <ele>67</ele>
			<time>2015-11-19T02:47:13Z</time>
			</trkpt>
		
			<trkpt lat="49.56498" lon="-1.73605">
			 <ele>68</ele>
			<time>2015-11-19T02:49:13Z</time>
			</trkpt>
		
			<trkpt lat="49.5648" lon="-1.73608">
			 <ele>68</ele>
			<time>2015-11-19T02:51:13Z</time>
			</trkpt>
		
			<trkpt lat="49.56454" lon="-1.73619">
			 <ele>69</ele>
			<time>2015-11-19T02:53:13Z</time>
			</trkpt>
		
			<trkpt lat="49.56439" lon="-1.73624">
			 <ele>69</ele>
			<time>2015-11-19T02:55:13Z</time>
			</trkpt>
		
			<trkpt lat="49.56412" lon="-1.73623">
			 <ele>70</ele>
			<time>2015-11-19T02:57:13Z</time>
			</trkpt>
		
			<trkpt lat="49.56399" lon="-1.7362">
			 <ele>70</ele>
			<time>2015-11-19T02:59:13Z</time>
			</trkpt>
		
			<trkpt lat="49.56391" lon="-1.73615">
			 <ele>71</ele>
			<time>2015-11-19T03:01:13Z</time>
			</trkpt>
		
			<trkpt lat="49.56379" lon="-1.73599">
			 <ele>72</ele>
			<time>2015-11-19T03:03:13Z</time>
			</trkpt>
		
			<trkpt lat="49.56376" lon="-1.73588">
			 <ele>72</ele>
			<time>2015-11-19T03:05:13Z</time>
			</trkpt>
		
			<trkpt lat="49.56375" lon="-1.73582">
			 <ele>72</ele>
			<time>2015-11-19T03:07:13Z</time>
			</trkpt>
		
			<trkpt lat="49.56361" lon="-1.73606">
			 <ele>72</ele>
			<time>2015-11-19T03:09:13Z</time>
			</trkpt>
		
			<trkpt lat="49.56358" lon="-1.73612">
			 <ele>72</ele>
			<time>2015-11-19T03:11:13Z</time>
			</trkpt>
		
			<trkpt lat="49.5635" lon="-1.73609">
			 <ele>73</ele>
			<time>2015-11-19T03:13:13Z</time>
			</trkpt>
		
			<trkpt lat="49.56344" lon="-1.73606">
			 <ele>73</ele>
			<time>2015-11-19T03:15:13Z</time>
			</trkpt>
		
			<trkpt lat="49.56336" lon="-1.73604">
			 <ele>74</ele>
			<time>2015-11-19T03:17:13Z</time>
			</trkpt>
		
			<trkpt lat="49.56318" lon="-1.73601">
			 <ele>75</ele>
			<time>2015-11-19T03:19:13Z</time>
			</trkpt>
		
			<trkpt lat="49.56301" lon="-1.73596">
			 <ele>76</ele>
			<time>2015-11-19T03:21:13Z</time>
			</trkpt>
		
			<trkpt lat="49.56292" lon="-1.73594">
			 <ele>76</ele>
			<time>2015-11-19T03:23:13Z</time>
			</trkpt>
		
			<trkpt lat="49.56286" lon="-1.73599">
			 <ele>77</ele>
			<time>2015-11-19T03:25:13Z</time>
			</trkpt>
		
			<trkpt lat="49.56279" lon="-1.736">
			 <ele>77</ele>
			<time>2015-11-19T03:27:13Z</time>
			</trkpt>
		
			<trkpt lat="49.56245" lon="-1.73607">
			 <ele>79</ele>
			<time>2015-11-19T03:29:13Z</time>
			</trkpt>
		
			<trkpt lat="49.56232" lon="-1.73603">
			 <ele>79</ele>
			<time>2015-11-19T03:31:13Z</time>
			</trkpt>
		
			<trkpt lat="49.56223" lon="-1.73604">
			 <ele>79</ele>
			<time>2015-11-19T03:33:13Z</time>
			</trkpt>
		
			<trkpt lat="49.56215" lon="-1.736">
			 <ele>79</ele>
			<time>2015-11-19T03:35:13Z</time>
			</trkpt>
		
			<trkpt lat="49.56212" lon="-1.73589">
			 <ele>79</ele>
			<time>2015-11-19T03:37:13Z</time>
			</trkpt>
		
			<trkpt lat="49.56209" lon="-1.7356">
			 <ele>79</ele>
			<time>2015-11-19T03:39:13Z</time>
			</trkpt>
		
			<trkpt lat="49.56202" lon="-1.73464">
			 <ele>80</ele>
			<time>2015-11-19T03:41:13Z</time>
			</trkpt>
		
			<trkpt lat="49.56202" lon="-1.73441">
			 <ele>80</ele>
			<time>2015-11-19T03:43:13Z</time>
			</trkpt>
		
			<trkpt lat="49.56198" lon="-1.73415">
			 <ele>81</ele>
			<time>2015-11-19T03:45:13Z</time>
			</trkpt>
		
			<trkpt lat="49.56197" lon="-1.73399">
			 <ele>81</ele>
			<time>2015-11-19T03:47:13Z</time>
			</trkpt>
		
			<trkpt lat="49.56196" lon="-1.73383">
			 <ele>82</ele>
			<time>2015-11-19T03:49:13Z</time>
			</trkpt>
		
			<trkpt lat="49.56168" lon="-1.73396">
			 <ele>82</ele>
			<time>2015-11-19T03:51:13Z</time>
			</trkpt>
		
			<trkpt lat="49.56139" lon="-1.73408">
			 <ele>82</ele>
			<time>2015-11-19T03:53:13Z</time>
			</trkpt>
		
			<trkpt lat="49.56117" lon="-1.73415">
			 <ele>82</ele>
			<time>2015-11-19T03:55:13Z</time>
			</trkpt>
		
			<trkpt lat="49.56044" lon="-1.73425">
			 <ele>81</ele>
			<time>2015-11-19T03:57:13Z</time>
			</trkpt>
		
			<trkpt lat="49.56028" lon="-1.73425">
			 <ele>81</ele>
			<time>2015-11-19T03:59:13Z</time>
			</trkpt>
		
			<trkpt lat="49.55999" lon="-1.73432">
			 <ele>80</ele>
			<time>2015-11-19T04:01:13Z</time>
			</trkpt>
		
			<trkpt lat="49.55978" lon="-1.73444">
			 <ele>79</ele>
			<time>2015-11-19T04:03:13Z</time>
			</trkpt>
		
			<trkpt lat="49.55961" lon="-1.73461">
			 <ele>78</ele>
			<time>2015-11-19T04:05:13Z</time>
			</trkpt>
		
			<trkpt lat="49.55955" lon="-1.73472">
			 <ele>77</ele>
			<time>2015-11-19T04:07:13Z</time>
			</trkpt>
		
			<trkpt lat="49.55942" lon="-1.73518">
			 <ele>76</ele>
			<time>2015-11-19T04:09:13Z</time>
			</trkpt>
		
			<trkpt lat="49.55938" lon="-1.73525">
			 <ele>75</ele>
			<time>2015-11-19T04:11:13Z</time>
			</trkpt>
		
			<trkpt lat="49.55915" lon="-1.73544">
			 <ele>74</ele>
			<time>2015-11-19T04:13:13Z</time>
			</trkpt>
		
			<trkpt lat="49.55891" lon="-1.73569">
			 <ele>73</ele>
			<time>2015-11-19T04:15:13Z</time>
			</trkpt>
		
			<trkpt lat="49.55858" lon="-1.73601">
			 <ele>73</ele>
			<time>2015-11-19T04:17:13Z</time>
			</trkpt>
		
			<trkpt lat="49.55857" lon="-1.73611">
			 <ele>72</ele>
			<time>2015-11-19T04:19:13Z</time>
			</trkpt>
		
			<trkpt lat="49.55856" lon="-1.73634">
			 <ele>72</ele>
			<time>2015-11-19T04:21:13Z</time>
			</trkpt>
		
			<trkpt lat="49.55854" lon="-1.73643">
			 <ele>72</ele>
			<time>2015-11-19T04:23:13Z</time>
			</trkpt>
		
			<trkpt lat="49.55838" lon="-1.73674">
			 <ele>71</ele>
			<time>2015-11-19T04:25:13Z</time>
			</trkpt>
		
			<trkpt lat="49.5579" lon="-1.73743">
			 <ele>72</ele>
			<time>2015-11-19T04:27:13Z</time>
			</trkpt>
		
			<trkpt lat="49.55767" lon="-1.73768">
			 <ele>71</ele>
			<time>2015-11-19T04:29:13Z</time>
			</trkpt>
		
			<trkpt lat="49.5572" lon="-1.73813">
			 <ele>70</ele>
			<time>2015-11-19T04:31:13Z</time>
			</trkpt>
		
			<trkpt lat="49.55703" lon="-1.73836">
			 <ele>69</ele>
			<time>2015-11-19T04:33:13Z</time>
			</trkpt>
		
			<trkpt lat="49.5569" lon="-1.73863">
			 <ele>68</ele>
			<time>2015-11-19T04:35:13Z</time>
			</trkpt>
		
			<trkpt lat="49.55679" lon="-1.73898">
			 <ele>65</ele>
			<time>2015-11-19T04:37:13Z</time>
			</trkpt>
		
			<trkpt lat="49.55666" lon="-1.7395">
			 <ele>60</ele>
			<time>2015-11-19T04:39:13Z</time>
			</trkpt>
		
			<trkpt lat="49.55661" lon="-1.73971">
			 <ele>59</ele>
			<time>2015-11-19T04:41:13Z</time>
			</trkpt>
		
			<trkpt lat="49.55659" lon="-1.73972">
			 <ele>58</ele>
			<time>2015-11-19T04:43:13Z</time>
			</trkpt>
		
			<trkpt lat="49.55654" lon="-1.73973">
			 <ele>58</ele>
			<time>2015-11-19T04:45:13Z</time>
			</trkpt>
		
			<trkpt lat="49.55632" lon="-1.73986">
			 <ele>58</ele>
			<time>2015-11-19T04:47:13Z</time>
			</trkpt>
		
			<trkpt lat="49.55606" lon="-1.73998">
			 <ele>58</ele>
			<time>2015-11-19T04:49:13Z</time>
			</trkpt>
		
			<trkpt lat="49.55598" lon="-1.74002">
			 <ele>58</ele>
			<time>2015-11-19T04:51:13Z</time>
			</trkpt>
		
			<trkpt lat="49.55588" lon="-1.74018">
			 <ele>58</ele>
			<time>2015-11-19T04:53:13Z</time>
			</trkpt>
		
			<trkpt lat="49.55553" lon="-1.74073">
			 <ele>60</ele>
			<time>2015-11-19T04:55:13Z</time>
			</trkpt>
		
			<trkpt lat="49.55538" lon="-1.74096">
			 <ele>62</ele>
			<time>2015-11-19T04:57:13Z</time>
			</trkpt>
		
			<trkpt lat="49.55517" lon="-1.74124">
			 <ele>64</ele>
			<time>2015-11-19T04:59:13Z</time>
			</trkpt>
		
			<trkpt lat="49.55529" lon="-1.74163">
			 <ele>64</ele>
			<time>2015-11-19T05:01:13Z</time>
			</trkpt>
		
			<trkpt lat="49.55531" lon="-1.74178">
			 <ele>64</ele>
			<time>2015-11-19T05:03:13Z</time>
			</trkpt>
		
			<trkpt lat="49.55533" lon="-1.74199">
			 <ele>64</ele>
			<time>2015-11-19T05:05:13Z</time>
			</trkpt>
		
			<trkpt lat="49.55533" lon="-1.74205">
			 <ele>65</ele>
			<time>2015-11-19T05:07:13Z</time>
			</trkpt>
		
			<trkpt lat="49.55531" lon="-1.74206">
			 <ele>65</ele>
			<time>2015-11-19T05:09:13Z</time>
			</trkpt>
		
			<trkpt lat="49.5552" lon="-1.74211">
			 <ele>65</ele>
			<time>2015-11-19T05:11:13Z</time>
			</trkpt>
		
			<trkpt lat="49.55509" lon="-1.7422">
			 <ele>66</ele>
			<time>2015-11-19T05:13:13Z</time>
			</trkpt>
		
			<trkpt lat="49.55484" lon="-1.7424">
			 <ele>68</ele>
			<time>2015-11-19T05:15:13Z</time>
			</trkpt>
		
			<trkpt lat="49.55426" lon="-1.74292">
			 <ele>73</ele>
			<time>2015-11-19T05:17:13Z</time>
			</trkpt>
		
			<trkpt lat="49.554" lon="-1.74313">
			 <ele>76</ele>
			<time>2015-11-19T05:19:13Z</time>
			</trkpt>
		
			<trkpt lat="49.55391" lon="-1.74319">
			 <ele>76</ele>
			<time>2015-11-19T05:21:13Z</time>
			</trkpt>
		
			<trkpt lat="49.55376" lon="-1.7432">
			 <ele>77</ele>
			<time>2015-11-19T05:23:13Z</time>
			</trkpt>
		
			<trkpt lat="49.55373" lon="-1.74341">
			 <ele>78</ele>
			<time>2015-11-19T05:25:13Z</time>
			</trkpt>
		
			<trkpt lat="49.55366" lon="-1.7436">
			 <ele>79</ele>
			<time>2015-11-19T05:27:13Z</time>
			</trkpt>
		
			<trkpt lat="49.55343" lon="-1.74407">
			 <ele>81</ele>
			<time>2015-11-19T05:29:13Z</time>
			</trkpt>
		
			<trkpt lat="49.55323" lon="-1.74452">
			 <ele>82</ele>
			<time>2015-11-19T05:31:13Z</time>
			</trkpt>
		
			<trkpt lat="49.55311" lon="-1.74487">
			 <ele>81</ele>
			<time>2015-11-19T05:33:13Z</time>
			</trkpt>
		
			<trkpt lat="49.55301" lon="-1.74503">
			 <ele>81</ele>
			<time>2015-11-19T05:35:13Z</time>
			</trkpt>
		
			<trkpt lat="49.55287" lon="-1.74512">
			 <ele>81</ele>
			<time>2015-11-19T05:37:13Z</time>
			</trkpt>
		
			<trkpt lat="49.55245" lon="-1.74522">
			 <ele>81</ele>
			<time>2015-11-19T05:39:13Z</time>
			</trkpt>
		
			<trkpt lat="49.55226" lon="-1.74525">
			 <ele>81</ele>
			<time>2015-11-19T05:41:13Z</time>
			</trkpt>
		
			<trkpt lat="49.55201" lon="-1.7454">
			 <ele>81</ele>
			<time>2015-11-19T05:43:13Z</time>
			</trkpt>
		
			<trkpt lat="49.55158" lon="-1.74581">
			 <ele>81</ele>
			<time>2015-11-19T05:45:13Z</time>
			</trkpt>
		
			<trkpt lat="49.55154" lon="-1.7459">
			 <ele>81</ele>
			<time>2015-11-19T05:47:13Z</time>
			</trkpt>
		
			<trkpt lat="49.55108" lon="-1.7465">
			 <ele>81</ele>
			<time>2015-11-19T05:49:13Z</time>
			</trkpt>
		
			<trkpt lat="49.55098" lon="-1.7466">
			 <ele>81</ele>
			<time>2015-11-19T05:51:13Z</time>
			</trkpt>
		
			<trkpt lat="49.55059" lon="-1.74691">
			 <ele>82</ele>
			<time>2015-11-19T05:53:13Z</time>
			</trkpt>
		
			<trkpt lat="49.55004" lon="-1.74746">
			 <ele>84</ele>
			<time>2015-11-19T05:55:13Z</time>
			</trkpt>
		
			<trkpt lat="49.54962" lon="-1.74768">
			 <ele>84</ele>
			<time>2015-11-19T05:57:13Z</time>
			</trkpt>
		
			<trkpt lat="49.54944" lon="-1.7478">
			 <ele>84</ele>
			<time>2015-11-19T05:59:13Z</time>
			</trkpt>
		
			<trkpt lat="49.54927" lon="-1.74797">
			 <ele>84</ele>
			<time>2015-11-19T06:01:13Z</time>
			</trkpt>
		
			<trkpt lat="49.54912" lon="-1.74814">
			 <ele>84</ele>
			<time>2015-11-19T06:03:13Z</time>
			</trkpt>
		
			<trkpt lat="49.54904" lon="-1.74826">
			 <ele>84</ele>
			<time>2015-11-19T06:05:13Z</time>
			</trkpt>
		
			<trkpt lat="49.54877" lon="-1.74865">
			 <ele>83</ele>
			<time>2015-11-19T06:07:13Z</time>
			</trkpt>
		
			<trkpt lat="49.54844" lon="-1.74904">
			 <ele>82</ele>
			<time>2015-11-19T06:09:13Z</time>
			</trkpt>
		
			<trkpt lat="49.54815" lon="-1.74935">
			 <ele>81</ele>
			<time>2015-11-19T06:11:13Z</time>
			</trkpt>
		
			<trkpt lat="49.54777" lon="-1.74972">
			 <ele>80</ele>
			<time>2015-11-19T06:13:13Z</time>
			</trkpt>
		
			<trkpt lat="49.54748" lon="-1.75006">
			 <ele>80</ele>
			<time>2015-11-19T06:15:13Z</time>
			</trkpt>
		
			<trkpt lat="49.54746" lon="-1.7501">
			 <ele>80</ele>
			<time>2015-11-19T06:17:13Z</time>
			</trkpt>
		
			<trkpt lat="49.54744" lon="-1.75021">
			 <ele>79</ele>
			<time>2015-11-19T06:19:13Z</time>
			</trkpt>
		
			<trkpt lat="49.54743" lon="-1.7504">
			 <ele>79</ele>
			<time>2015-11-19T06:21:13Z</time>
			</trkpt>
		
			<trkpt lat="49.54738" lon="-1.75061">
			 <ele>78</ele>
			<time>2015-11-19T06:23:13Z</time>
			</trkpt>
		
			<trkpt lat="49.54734" lon="-1.75076">
			 <ele>78</ele>
			<time>2015-11-19T06:25:13Z</time>
			</trkpt>
		
			<trkpt lat="49.54722" lon="-1.75105">
			 <ele>77</ele>
			<time>2015-11-19T06:27:13Z</time>
			</trkpt>
		
			<trkpt lat="49.54716" lon="-1.75117">
			 <ele>76</ele>
			<time>2015-11-19T06:29:13Z</time>
			</trkpt>
		
			<trkpt lat="49.54693" lon="-1.75153">
			 <ele>76</ele>
			<time>2015-11-19T06:31:13Z</time>
			</trkpt>
		
			<trkpt lat="49.54669" lon="-1.75191">
			 <ele>76</ele>
			<time>2015-11-19T06:33:13Z</time>
			</trkpt>
		
			<trkpt lat="49.54651" lon="-1.75216">
			 <ele>75</ele>
			<time>2015-11-19T06:35:13Z</time>
			</trkpt>
		
			<trkpt lat="49.54634" lon="-1.75233">
			 <ele>74</ele>
			<time>2015-11-19T06:37:13Z</time>
			</trkpt>
		
			<trkpt lat="49.54587" lon="-1.75274">
			 <ele>73</ele>
			<time>2015-11-19T06:39:13Z</time>
			</trkpt>
		
			<trkpt lat="49.54576" lon="-1.75286">
			 <ele>72</ele>
			<time>2015-11-19T06:41:13Z</time>
			</trkpt>
		
			<trkpt lat="49.54542" lon="-1.75335">
			 <ele>70</ele>
			<time>2015-11-19T06:43:13Z</time>
			</trkpt>
		
			<trkpt lat="49.54495" lon="-1.75396">
			 <ele>68</ele>
			<time>2015-11-19T06:45:13Z</time>
			</trkpt>
		
			<trkpt lat="49.54474" lon="-1.75421">
			 <ele>66</ele>
			<time>2015-11-19T06:47:13Z</time>
			</trkpt>
		
			<trkpt lat="49.54463" lon="-1.75427">
			 <ele>66</ele>
			<time>2015-11-19T06:49:13Z</time>
			</trkpt>
		
			<trkpt lat="49.54427" lon="-1.75432">
			 <ele>63</ele>
			<time>2015-11-19T06:51:13Z</time>
			</trkpt>
		
			<trkpt lat="49.54394" lon="-1.75449">
			 <ele>62</ele>
			<time>2015-11-19T06:53:13Z</time>
			</trkpt>
		
			<trkpt lat="49.54388" lon="-1.75453">
			 <ele>61</ele>
			<time>2015-11-19T06:55:13Z</time>
			</trkpt>
		
			<trkpt lat="49.54385" lon="-1.75453">
			 <ele>61</ele>
			<time>2015-11-19T06:57:13Z</time>
			</trkpt>
		
			<trkpt lat="49.54381" lon="-1.7546">
			 <ele>61</ele>
			<time>2015-11-19T06:59:13Z</time>
			</trkpt>
		
			<trkpt lat="49.5432" lon="-1.75528">
			 <ele>59</ele>
			<time>2015-11-19T07:01:13Z</time>
			</trkpt>
		
			<trkpt lat="49.54312" lon="-1.7554">
			 <ele>60</ele>
			<time>2015-11-19T07:03:13Z</time>
			</trkpt>
		
			<trkpt lat="49.54311" lon="-1.75555">
			 <ele>59</ele>
			<time>2015-11-19T07:05:13Z</time>
			</trkpt>
		
			<trkpt lat="49.54313" lon="-1.75574">
			 <ele>59</ele>
			<time>2015-11-19T07:07:13Z</time>
			</trkpt>
		
			<trkpt lat="49.54317" lon="-1.75598">
			 <ele>60</ele>
			<time>2015-11-19T07:09:13Z</time>
			</trkpt>
		
			<trkpt lat="49.54315" lon="-1.75644">
			 <ele>62</ele>
			<time>2015-11-19T07:11:13Z</time>
			</trkpt>
		
			<trkpt lat="49.54307" lon="-1.75722">
			 <ele>67</ele>
			<time>2015-11-19T07:13:13Z</time>
			</trkpt>
		
			<trkpt lat="49.54302" lon="-1.75759">
			 <ele>69</ele>
			<time>2015-11-19T07:15:13Z</time>
			</trkpt>
		
			<trkpt lat="49.54294" lon="-1.75796">
			 <ele>70</ele>
			<time>2015-11-19T07:17:13Z</time>
			</trkpt>
		
			<trkpt lat="49.54282" lon="-1.75838">
			 <ele>72</ele>
			<time>2015-11-19T07:19:13Z</time>
			</trkpt>
		
			<trkpt lat="49.54261" lon="-1.75899">
			 <ele>74</ele>
			<time>2015-11-19T07:21:13Z</time>
			</trkpt>
		
			<trkpt lat="49.54238" lon="-1.75982">
			 <ele>77</ele>
			<time>2015-11-19T07:23:13Z</time>
			</trkpt>
		
			<trkpt lat="49.54233" lon="-1.76013">
			 <ele>78</ele>
			<time>2015-11-19T07:25:13Z</time>
			</trkpt>
		
			<trkpt lat="49.54226" lon="-1.7608">
			 <ele>80</ele>
			<time>2015-11-19T07:27:13Z</time>
			</trkpt>
		
			<trkpt lat="49.54217" lon="-1.76146">
			 <ele>79</ele>
			<time>2015-11-19T07:29:13Z</time>
			</trkpt>
		
			<trkpt lat="49.54203" lon="-1.76221">
			 <ele>80</ele>
			<time>2015-11-19T07:31:13Z</time>
			</trkpt>
		
			<trkpt lat="49.54193" lon="-1.76287">
			 <ele>80</ele>
			<time>2015-11-19T07:33:13Z</time>
			</trkpt>
		
			<trkpt lat="49.54191" lon="-1.76309">
			 <ele>80</ele>
			<time>2015-11-19T07:35:13Z</time>
			</trkpt>
		
			<trkpt lat="49.54191" lon="-1.76314">
			 <ele>80</ele>
			<time>2015-11-19T07:37:13Z</time>
			</trkpt>
		
			<trkpt lat="49.54186" lon="-1.76315">
			 <ele>80</ele>
			<time>2015-11-19T07:39:13Z</time>
			</trkpt>
		
			<trkpt lat="49.5417" lon="-1.76326">
			 <ele>79</ele>
			<time>2015-11-19T07:41:13Z</time>
			</trkpt>
		
			<trkpt lat="49.54163" lon="-1.76383">
			 <ele>79</ele>
			<time>2015-11-19T07:43:13Z</time>
			</trkpt>
		
			<trkpt lat="49.54152" lon="-1.76436">
			 <ele>78</ele>
			<time>2015-11-19T07:45:13Z</time>
			</trkpt>
		
			<trkpt lat="49.54139" lon="-1.7651">
			 <ele>76</ele>
			<time>2015-11-19T07:47:13Z</time>
			</trkpt>
		
			<trkpt lat="49.54131" lon="-1.76546">
			 <ele>75</ele>
			<time>2015-11-19T07:49:13Z</time>
			</trkpt>
		
			<trkpt lat="49.54118" lon="-1.7658">
			 <ele>73</ele>
			<time>2015-11-19T07:51:13Z</time>
			</trkpt>
		
			<trkpt lat="49.54103" lon="-1.76609">
			 <ele>72</ele>
			<time>2015-11-19T07:53:13Z</time>
			</trkpt>
		
			<trkpt lat="49.54064" lon="-1.76659">
			 <ele>72</ele>
			<time>2015-11-19T07:55:13Z</time>
			</trkpt>
		
			<trkpt lat="49.54051" lon="-1.76677">
			 <ele>72</ele>
			<time>2015-11-19T07:57:13Z</time>
			</trkpt>
		
			<trkpt lat="49.54038" lon="-1.7671">
			 <ele>72</ele>
			<time>2015-11-19T07:59:13Z</time>
			</trkpt>
		
			<trkpt lat="49.54028" lon="-1.7673">
			 <ele>72</ele>
			<time>2015-11-19T08:01:13Z</time>
			</trkpt>
		
			<trkpt lat="49.53996" lon="-1.76776">
			 <ele>71</ele>
			<time>2015-11-19T08:03:13Z</time>
			</trkpt>
		
			<trkpt lat="49.53987" lon="-1.76797">
			 <ele>71</ele>
			<time>2015-11-19T08:05:13Z</time>
			</trkpt>
		
			<trkpt lat="49.53981" lon="-1.76823">
			 <ele>71</ele>
			<time>2015-11-19T08:07:13Z</time>
			</trkpt>
		
			<trkpt lat="49.53943" lon="-1.76862">
			 <ele>70</ele>
			<time>2015-11-19T08:09:13Z</time>
			</trkpt>
		
			<trkpt lat="49.53919" lon="-1.76891">
			 <ele>71</ele>
			<time>2015-11-19T08:11:13Z</time>
			</trkpt>
		
			<trkpt lat="49.53902" lon="-1.76904">
			 <ele>71</ele>
			<time>2015-11-19T08:13:13Z</time>
			</trkpt>
		
			<trkpt lat="49.53874" lon="-1.76913">
			 <ele>71</ele>
			<time>2015-11-19T08:15:13Z</time>
			</trkpt>
		
			<trkpt lat="49.53816" lon="-1.76946">
			 <ele>70</ele>
			<time>2015-11-19T08:17:13Z</time>
			</trkpt>
		
			<trkpt lat="49.53802" lon="-1.76953">
			 <ele>70</ele>
			<time>2015-11-19T08:19:13Z</time>
			</trkpt>
		
			<trkpt lat="49.53747" lon="-1.76994">
			 <ele>71</ele>
			<time>2015-11-19T08:21:13Z</time>
			</trkpt>
		
			<trkpt lat="49.53722" lon="-1.77003">
			 <ele>70</ele>
			<time>2015-11-19T08:23:13Z</time>
			</trkpt>
		
			<trkpt lat="49.53714" lon="-1.77006">
			 <ele>70</ele>
			<time>2015-11-19T08:25:13Z</time>
			</trkpt>
		
			<trkpt lat="49.53692" lon="-1.77052">
			 <ele>69</ele>
			<time>2015-11-19T08:27:13Z</time>
			</trkpt>
		
			<trkpt lat="49.53683" lon="-1.77065">
			 <ele>68</ele>
			<time>2015-11-19T08:29:13Z</time>
			</trkpt>
		
			<trkpt lat="49.53655" lon="-1.77084">
			 <ele>68</ele>
			<time>2015-11-19T08:31:13Z</time>
			</trkpt>
		
			<trkpt lat="49.53624" lon="-1.77103">
			 <ele>67</ele>
			<time>2015-11-19T08:33:13Z</time>
			</trkpt>
		
			<trkpt lat="49.53608" lon="-1.77111">
			 <ele>67</ele>
			<time>2015-11-19T08:35:13Z</time>
			</trkpt>
		
			<trkpt lat="49.53573" lon="-1.77125">
			 <ele>67</ele>
			<time>2015-11-19T08:37:13Z</time>
			</trkpt>
		
			<trkpt lat="49.53565" lon="-1.77129">
			 <ele>66</ele>
			<time>2015-11-19T08:39:13Z</time>
			</trkpt>
		
			<trkpt lat="49.53522" lon="-1.77169">
			 <ele>65</ele>
			<time>2015-11-19T08:41:13Z</time>
			</trkpt>
		
			<trkpt lat="49.53508" lon="-1.77185">
			 <ele>65</ele>
			<time>2015-11-19T08:43:13Z</time>
			</trkpt>
		
			<trkpt lat="49.53433" lon="-1.77245">
			 <ele>67</ele>
			<time>2015-11-19T08:45:13Z</time>
			</trkpt>
		
			<trkpt lat="49.53389" lon="-1.7729">
			 <ele>67</ele>
			<time>2015-11-19T08:47:13Z</time>
			</trkpt>
		
			<trkpt lat="49.53384" lon="-1.77293">
			 <ele>67</ele>
			<time>2015-11-19T08:49:13Z</time>
			</trkpt>
		
			<trkpt lat="49.53353" lon="-1.77326">
			 <ele>67</ele>
			<time>2015-11-19T08:51:13Z</time>
			</trkpt>
		
			<trkpt lat="49.53342" lon="-1.77336">
			 <ele>67</ele>
			<time>2015-11-19T08:53:13Z</time>
			</trkpt>
		
			<trkpt lat="49.53277" lon="-1.7738">
			 <ele>67</ele>
			<time>2015-11-19T08:55:13Z</time>
			</trkpt>
		
			<trkpt lat="49.53246" lon="-1.77402">
			 <ele>67</ele>
			<time>2015-11-19T08:57:13Z</time>
			</trkpt>
		
			<trkpt lat="49.53184" lon="-1.77434">
			 <ele>66</ele>
			<time>2015-11-19T08:59:13Z</time>
			</trkpt>
		
			<trkpt lat="49.5312" lon="-1.77472">
			 <ele>64</ele>
			<time>2015-11-19T09:01:13Z</time>
			</trkpt>
		
			<trkpt lat="49.53105" lon="-1.77477">
			 <ele>64</ele>
			<time>2015-11-19T09:03:13Z</time>
			</trkpt>
		
			<trkpt lat="49.53093" lon="-1.77473">
			 <ele>63</ele>
			<time>2015-11-19T09:05:13Z</time>
			</trkpt>
		
			<trkpt lat="49.53022" lon="-1.77432">
			 <ele>61</ele>
			<time>2015-11-19T09:07:13Z</time>
			</trkpt>
		
			<trkpt lat="49.53003" lon="-1.77425">
			 <ele>61</ele>
			<time>2015-11-19T09:09:13Z</time>
			</trkpt>
		
			<trkpt lat="49.52975" lon="-1.77416">
			 <ele>61</ele>
			<time>2015-11-19T09:11:13Z</time>
			</trkpt>
		
			<trkpt lat="49.52915" lon="-1.77401">
			 <ele>60</ele>
			<time>2015-11-19T09:13:13Z</time>
			</trkpt>
		
			<trkpt lat="49.52889" lon="-1.77399">
			 <ele>61</ele>
			<time>2015-11-19T09:15:13Z</time>
			</trkpt>
		
			<trkpt lat="49.52857" lon="-1.77404">
			 <ele>62</ele>
			<time>2015-11-19T09:17:13Z</time>
			</trkpt>
		
			<trkpt lat="49.528" lon="-1.77409">
			 <ele>61</ele>
			<time>2015-11-19T09:19:13Z</time>
			</trkpt>
		
			<trkpt lat="49.52781" lon="-1.77414">
			 <ele>60</ele>
			<time>2015-11-19T09:21:13Z</time>
			</trkpt>
		
			<trkpt lat="49.52755" lon="-1.77416">
			 <ele>59</ele>
			<time>2015-11-19T09:23:13Z</time>
			</trkpt>
		
			<trkpt lat="49.52724" lon="-1.77426">
			 <ele>56</ele>
			<time>2015-11-19T09:25:13Z</time>
			</trkpt>
		
			<trkpt lat="49.52711" lon="-1.77429">
			 <ele>55</ele>
			<time>2015-11-19T09:27:13Z</time>
			</trkpt>
		
			<trkpt lat="49.5269" lon="-1.77428">
			 <ele>53</ele>
			<time>2015-11-19T09:29:13Z</time>
			</trkpt>
		
			<trkpt lat="49.52678" lon="-1.77423">
			 <ele>52</ele>
			<time>2015-11-19T09:31:13Z</time>
			</trkpt>
		
			<trkpt lat="49.52619" lon="-1.77404">
			 <ele>50</ele>
			<time>2015-11-19T09:33:13Z</time>
			</trkpt>
		
			<trkpt lat="49.52604" lon="-1.77398">
			 <ele>50</ele>
			<time>2015-11-19T09:35:13Z</time>
			</trkpt>
		
			<trkpt lat="49.52601" lon="-1.77397">
			 <ele>50</ele>
			<time>2015-11-19T09:37:13Z</time>
			</trkpt>
		
			<trkpt lat="49.52569" lon="-1.77386">
			 <ele>50</ele>
			<time>2015-11-19T09:39:13Z</time>
			</trkpt>
		
			<trkpt lat="49.52551" lon="-1.77377">
			 <ele>51</ele>
			<time>2015-11-19T09:41:13Z</time>
			</trkpt>
		
			<trkpt lat="49.52548" lon="-1.77375">
			 <ele>51</ele>
			<time>2015-11-19T09:43:13Z</time>
			</trkpt>
		
			<trkpt lat="49.52543" lon="-1.7748">
			 <ele>53</ele>
			<time>2015-11-19T09:45:13Z</time>
			</trkpt>
		
			<trkpt lat="49.5254" lon="-1.77481">
			 <ele>53</ele>
			<time>2015-11-19T09:47:13Z</time>
			</trkpt>
		
			<trkpt lat="49.52522" lon="-1.7749">
			 <ele>55</ele>
			<time>2015-11-19T09:49:13Z</time>
			</trkpt>
		
			<trkpt lat="49.52498" lon="-1.77516">
			 <ele>58</ele>
			<time>2015-11-19T09:51:13Z</time>
			</trkpt>
		
			<trkpt lat="49.52481" lon="-1.77532">
			 <ele>60</ele>
			<time>2015-11-19T09:53:13Z</time>
			</trkpt>
		
			<trkpt lat="49.52472" lon="-1.77538">
			 <ele>61</ele>
			<time>2015-11-19T09:55:13Z</time>
			</trkpt>
		
			<trkpt lat="49.52467" lon="-1.77539">
			 <ele>61</ele>
			<time>2015-11-19T09:57:13Z</time>
			</trkpt>
		
			<trkpt lat="49.52448" lon="-1.77554">
			 <ele>63</ele>
			<time>2015-11-19T09:59:13Z</time>
			</trkpt>
		
			<trkpt lat="49.52435" lon="-1.77571">
			 <ele>64</ele>
			<time>2015-11-19T10:01:13Z</time>
			</trkpt>
		
			<trkpt lat="49.52406" lon="-1.77614">
			 <ele>66</ele>
			<time>2015-11-19T10:03:13Z</time>
			</trkpt>
		
			<trkpt lat="49.52385" lon="-1.77644">
			 <ele>66</ele>
			<time>2015-11-19T10:05:13Z</time>
			</trkpt>
		
			<trkpt lat="49.52375" lon="-1.77662">
			 <ele>66</ele>
			<time>2015-11-19T10:07:13Z</time>
			</trkpt>
		
			<trkpt lat="49.52367" lon="-1.77684">
			 <ele>67</ele>
			<time>2015-11-19T10:09:13Z</time>
			</trkpt>
		
			<trkpt lat="49.52364" lon="-1.77697">
			 <ele>67</ele>
			<time>2015-11-19T10:11:13Z</time>
			</trkpt>
		
			<trkpt lat="49.52357" lon="-1.77692">
			 <ele>67</ele>
			<time>2015-11-19T10:13:13Z</time>
			</trkpt>
		
			<trkpt lat="49.52355" lon="-1.77688">
			 <ele>67</ele>
			<time>2015-11-19T10:15:13Z</time>
			</trkpt>
		
			<trkpt lat="49.52352" lon="-1.77695">
			 <ele>67</ele>
			<time>2015-11-19T10:17:13Z</time>
			</trkpt>
		
			<trkpt lat="49.52313" lon="-1.7774">
			 <ele>67</ele>
			<time>2015-11-19T10:19:13Z</time>
			</trkpt>
		
			<trkpt lat="49.52295" lon="-1.77764">
			 <ele>66</ele>
			<time>2015-11-19T10:21:13Z</time>
			</trkpt>
		
			<trkpt lat="49.52278" lon="-1.77784">
			 <ele>66</ele>
			<time>2015-11-19T10:23:13Z</time>
			</trkpt>
		
			<trkpt lat="49.52236" lon="-1.77825">
			 <ele>68</ele>
			<time>2015-11-19T10:25:13Z</time>
			</trkpt>
		
			<trkpt lat="49.52229" lon="-1.77834">
			 <ele>68</ele>
			<time>2015-11-19T10:27:13Z</time>
			</trkpt>
		
			<trkpt lat="49.52199" lon="-1.7787">
			 <ele>70</ele>
			<time>2015-11-19T10:29:13Z</time>
			</trkpt>
		
			<trkpt lat="49.52171" lon="-1.77903">
			 <ele>74</ele>
			<time>2015-11-19T10:31:13Z</time>
			</trkpt>
		
			<trkpt lat="49.52151" lon="-1.77924">
			 <ele>75</ele>
			<time>2015-11-19T10:33:13Z</time>
			</trkpt>
		
			<trkpt lat="49.52134" lon="-1.77946">
			 <ele>75</ele>
			<time>2015-11-19T10:35:13Z</time>
			</trkpt>
		
			<trkpt lat="49.52096" lon="-1.77996">
			 <ele>76</ele>
			<time>2015-11-19T10:37:13Z</time>
			</trkpt>
		
			<trkpt lat="49.52078" lon="-1.78028">
			 <ele>76</ele>
			<time>2015-11-19T10:39:13Z</time>
			</trkpt>
		
			<trkpt lat="49.52052" lon="-1.7807">
			 <ele>76</ele>
			<time>2015-11-19T10:41:13Z</time>
			</trkpt>
		
			<trkpt lat="49.52036" lon="-1.78093">
			 <ele>76</ele>
			<time>2015-11-19T10:43:13Z</time>
			</trkpt>
		
			<trkpt lat="49.51985" lon="-1.78154">
			 <ele>78</ele>
			<time>2015-11-19T10:45:13Z</time>
			</trkpt>
		
			<trkpt lat="49.5196" lon="-1.78188">
			 <ele>78</ele>
			<time>2015-11-19T10:47:13Z</time>
			</trkpt>
		
			<trkpt lat="49.51917" lon="-1.78246">
			 <ele>80</ele>
			<time>2015-11-19T10:49:13Z</time>
			</trkpt>
		
			<trkpt lat="49.51881" lon="-1.78297">
			 <ele>82</ele>
			<time>2015-11-19T10:51:13Z</time>
			</trkpt>
		
			<trkpt lat="49.51865" lon="-1.7833">
			 <ele>83</ele>
			<time>2015-11-19T10:53:13Z</time>
			</trkpt>
		
			<trkpt lat="49.51849" lon="-1.78372">
			 <ele>84</ele>
			<time>2015-11-19T10:55:13Z</time>
			</trkpt>
		
			<trkpt lat="49.51833" lon="-1.78426">
			 <ele>86</ele>
			<time>2015-11-19T10:57:13Z</time>
			</trkpt>
		
			<trkpt lat="49.51807" lon="-1.78491">
			 <ele>87</ele>
			<time>2015-11-19T10:59:13Z</time>
			</trkpt>
		
			<trkpt lat="49.51784" lon="-1.78552">
			 <ele>87</ele>
			<time>2015-11-19T11:01:13Z</time>
			</trkpt>
		
			<trkpt lat="49.51763" lon="-1.78618">
			 <ele>87</ele>
			<time>2015-11-19T11:03:13Z</time>
			</trkpt>
		
			<trkpt lat="49.51753" lon="-1.78653">
			 <ele>87</ele>
			<time>2015-11-19T11:05:13Z</time>
			</trkpt>
		
			<trkpt lat="49.51738" lon="-1.78691">
			 <ele>87</ele>
			<time>2015-11-19T11:07:13Z</time>
			</trkpt>
		
			<trkpt lat="49.51723" lon="-1.78739">
			 <ele>87</ele>
			<time>2015-11-19T11:09:13Z</time>
			</trkpt>
		
			<trkpt lat="49.51714" lon="-1.78777">
			 <ele>87</ele>
			<time>2015-11-19T11:11:13Z</time>
			</trkpt>
		
			<trkpt lat="49.51697" lon="-1.78837">
			 <ele>87</ele>
			<time>2015-11-19T11:13:13Z</time>
			</trkpt>
		
			<trkpt lat="49.51692" lon="-1.78861">
			 <ele>87</ele>
			<time>2015-11-19T11:15:13Z</time>
			</trkpt>
		
			<trkpt lat="49.51693" lon="-1.78874">
			 <ele>87</ele>
			<time>2015-11-19T11:17:13Z</time>
			</trkpt>
		
			<trkpt lat="49.51701" lon="-1.78908">
			 <ele>87</ele>
			<time>2015-11-19T11:19:13Z</time>
			</trkpt>
		
			<trkpt lat="49.51715" lon="-1.79044">
			 <ele>89</ele>
			<time>2015-11-19T11:21:13Z</time>
			</trkpt>
		
			<trkpt lat="49.51724" lon="-1.79101">
			 <ele>90</ele>
			<time>2015-11-19T11:23:13Z</time>
			</trkpt>
		
			<trkpt lat="49.51729" lon="-1.79131">
			 <ele>91</ele>
			<time>2015-11-19T11:25:13Z</time>
			</trkpt>
		
			<trkpt lat="49.51734" lon="-1.79148">
			 <ele>91</ele>
			<time>2015-11-19T11:27:13Z</time>
			</trkpt>
		
			<trkpt lat="49.51733" lon="-1.79164">
			 <ele>91</ele>
			<time>2015-11-19T11:29:13Z</time>
			</trkpt>
		
			<trkpt lat="49.51733" lon="-1.79202">
			 <ele>92</ele>
			<time>2015-11-19T11:31:13Z</time>
			</trkpt>
		
			<trkpt lat="49.51734" lon="-1.7921">
			 <ele>92</ele>
			<time>2015-11-19T11:33:13Z</time>
			</trkpt>
		
			<trkpt lat="49.51737" lon="-1.7922">
			 <ele>92</ele>
			<time>2015-11-19T11:35:13Z</time>
			</trkpt>
		
			<trkpt lat="49.51734" lon="-1.79231">
			 <ele>92</ele>
			<time>2015-11-19T11:37:13Z</time>
			</trkpt>
		
			<trkpt lat="49.51728" lon="-1.79254">
			 <ele>93</ele>
			<time>2015-11-19T11:39:13Z</time>
			</trkpt>
		
			<trkpt lat="49.51723" lon="-1.7927">
			 <ele>93</ele>
			<time>2015-11-19T11:41:13Z</time>
			</trkpt>
		
			<trkpt lat="49.51711" lon="-1.79315">
			 <ele>93</ele>
			<time>2015-11-19T11:43:13Z</time>
			</trkpt>
		
			<trkpt lat="49.51694" lon="-1.79388">
			 <ele>94</ele>
			<time>2015-11-19T11:45:13Z</time>
			</trkpt>
		
			<trkpt lat="49.51691" lon="-1.794">
			 <ele>94</ele>
			<time>2015-11-19T11:47:13Z</time>
			</trkpt>
		
			<trkpt lat="49.5169" lon="-1.79407">
			 <ele>94</ele>
			<time>2015-11-19T11:49:13Z</time>
			</trkpt>
		
			<trkpt lat="49.51691" lon="-1.79417">
			 <ele>94</ele>
			<time>2015-11-19T11:51:13Z</time>
			</trkpt>
		
			<trkpt lat="49.51692" lon="-1.79424">
			 <ele>93</ele>
			<time>2015-11-19T11:53:13Z</time>
			</trkpt>
		
			<trkpt lat="49.51694" lon="-1.79429">
			 <ele>93</ele>
			<time>2015-11-19T11:55:13Z</time>
			</trkpt>
		
			<trkpt lat="49.51697" lon="-1.79442">
			 <ele>93</ele>
			<time>2015-11-19T11:57:13Z</time>
			</trkpt>
		
			<trkpt lat="49.51699" lon="-1.79451">
			 <ele>93</ele>
			<time>2015-11-19T11:59:13Z</time>
			</trkpt>
		
			<trkpt lat="49.51699" lon="-1.79456">
			 <ele>93</ele>
			<time>2015-11-19T12:01:13Z</time>
			</trkpt>
		
			<trkpt lat="49.51698" lon="-1.79466">
			 <ele>93</ele>
			<time>2015-11-19T12:03:13Z</time>
			</trkpt>
		
			<trkpt lat="49.51679" lon="-1.79568">
			 <ele>94</ele>
			<time>2015-11-19T12:05:13Z</time>
			</trkpt>
		
			<trkpt lat="49.51665" lon="-1.79652">
			 <ele>96</ele>
			<time>2015-11-19T12:07:13Z</time>
			</trkpt>
		
			<trkpt lat="49.51654" lon="-1.79722">
			 <ele>95</ele>
			<time>2015-11-19T12:09:13Z</time>
			</trkpt>
		
			<trkpt lat="49.51653" lon="-1.79728">
			 <ele>95</ele>
			<time>2015-11-19T12:11:13Z</time>
			</trkpt>
		
			<trkpt lat="49.51652" lon="-1.79734">
			 <ele>95</ele>
			<time>2015-11-19T12:13:13Z</time>
			</trkpt>
		
			<trkpt lat="49.51649" lon="-1.79741">
			 <ele>95</ele>
			<time>2015-11-19T12:15:13Z</time>
			</trkpt>
		
			<trkpt lat="49.51644" lon="-1.79748">
			 <ele>95</ele>
			<time>2015-11-19T12:17:13Z</time>
			</trkpt>
		
			<trkpt lat="49.51637" lon="-1.79762">
			 <ele>96</ele>
			<time>2015-11-19T12:19:13Z</time>
			</trkpt>
		
			<trkpt lat="49.51638" lon="-1.79768">
			 <ele>96</ele>
			<time>2015-11-19T12:21:13Z</time>
			</trkpt>
		
			<trkpt lat="49.51639" lon="-1.79779">
			 <ele>96</ele>
			<time>2015-11-19T12:23:13Z</time>
			</trkpt>
		
			<trkpt lat="49.51638" lon="-1.7979">
			 <ele>96</ele>
			<time>2015-11-19T12:25:13Z</time>
			</trkpt>
		
			<trkpt lat="49.51638" lon="-1.79803">
			 <ele>96</ele>
			<time>2015-11-19T12:27:13Z</time>
			</trkpt>
		
			<trkpt lat="49.51636" lon="-1.79829">
			 <ele>97</ele>
			<time>2015-11-19T12:29:13Z</time>
			</trkpt>
		
			<trkpt lat="49.51635" lon="-1.79839">
			 <ele>97</ele>
			<time>2015-11-19T12:31:13Z</time>
			</trkpt>
		
			<trkpt lat="49.51636" lon="-1.79849">
			 <ele>97</ele>
			<time>2015-11-19T12:33:13Z</time>
			</trkpt>
		
			<trkpt lat="49.51639" lon="-1.79861">
			 <ele>97</ele>
			<time>2015-11-19T12:35:13Z</time>
			</trkpt>
		
			<trkpt lat="49.51638" lon="-1.79873">
			 <ele>97</ele>
			<time>2015-11-19T12:37:13Z</time>
			</trkpt>
		
			<trkpt lat="49.51637" lon="-1.79886">
			 <ele>97</ele>
			<time>2015-11-19T12:39:13Z</time>
			</trkpt>
		
			<trkpt lat="49.51635" lon="-1.79891">
			 <ele>97</ele>
			<time>2015-11-19T12:41:13Z</time>
			</trkpt>
		
			<trkpt lat="49.51633" lon="-1.79894">
			 <ele>97</ele>
			<time>2015-11-19T12:43:13Z</time>
			</trkpt>
		
			<trkpt lat="49.51631" lon="-1.79898">
			 <ele>97</ele>
			<time>2015-11-19T12:45:13Z</time>
			</trkpt>
		
			<trkpt lat="49.5163" lon="-1.79904">
			 <ele>97</ele>
			<time>2015-11-19T12:47:13Z</time>
			</trkpt>
		
			<trkpt lat="49.5163" lon="-1.79909">
			 <ele>97</ele>
			<time>2015-11-19T12:49:13Z</time>
			</trkpt>
		
			<trkpt lat="49.51631" lon="-1.79917">
			 <ele>97</ele>
			<time>2015-11-19T12:51:13Z</time>
			</trkpt>
		
			<trkpt lat="49.51625" lon="-1.79933">
			 <ele>97</ele>
			<time>2015-11-19T12:53:13Z</time>
			</trkpt>
		
			<trkpt lat="49.51619" lon="-1.79943">
			 <ele>97</ele>
			<time>2015-11-19T12:55:13Z</time>
			</trkpt>
		
			<trkpt lat="49.51614" lon="-1.79951">
			 <ele>97</ele>
			<time>2015-11-19T12:57:13Z</time>
			</trkpt>
		
			<trkpt lat="49.51611" lon="-1.79956">
			 <ele>97</ele>
			<time>2015-11-19T12:59:13Z</time>
			</trkpt>
		
			<trkpt lat="49.51567" lon="-1.80214">
			 <ele>103</ele>
			<time>2015-11-19T13:01:13Z</time>
			</trkpt>
		
			<trkpt lat="49.51541" lon="-1.80365">
			 <ele>110</ele>
			<time>2015-11-19T13:03:13Z</time>
			</trkpt>
		
			<trkpt lat="49.51529" lon="-1.80441">
			 <ele>113</ele>
			<time>2015-11-19T13:05:13Z</time>
			</trkpt>
		
			<trkpt lat="49.51527" lon="-1.80457">
			 <ele>114</ele>
			<time>2015-11-19T13:07:13Z</time>
			</trkpt>
		
			<trkpt lat="49.51525" lon="-1.80477">
			 <ele>115</ele>
			<time>2015-11-19T13:09:13Z</time>
			</trkpt>
		
			<trkpt lat="49.51527" lon="-1.80478">
			 <ele>115</ele>
			<time>2015-11-19T13:11:13Z</time>
			</trkpt>
		
			<trkpt lat="49.51527" lon="-1.80481">
			 <ele>115</ele>
			<time>2015-11-19T13:13:13Z</time>
			</trkpt>
		
			<trkpt lat="49.51527" lon="-1.80483">
			 <ele>115</ele>
			<time>2015-11-19T13:15:13Z</time>
			</trkpt>
		
			<trkpt lat="49.51526" lon="-1.80487">
			 <ele>115</ele>
			<time>2015-11-19T13:17:13Z</time>
			</trkpt>
		
			<trkpt lat="49.51523" lon="-1.8049">
			 <ele>115</ele>
			<time>2015-11-19T13:19:13Z</time>
			</trkpt>
		
			<trkpt lat="49.51521" lon="-1.8049">
			 <ele>115</ele>
			<time>2015-11-19T13:21:13Z</time>
			</trkpt>
		
			<trkpt lat="49.51519" lon="-1.80499">
			 <ele>116</ele>
			<time>2015-11-19T13:23:13Z</time>
			</trkpt>
		
			<trkpt lat="49.51516" lon="-1.80517">
			 <ele>116</ele>
			<time>2015-11-19T13:25:13Z</time>
			</trkpt>
		
			<trkpt lat="49.51493" lon="-1.80635">
			 <ele>119</ele>
			<time>2015-11-19T13:27:13Z</time>
			</trkpt>
		
			<trkpt lat="49.51491" lon="-1.80641">
			 <ele>119</ele>
			<time>2015-11-19T13:29:13Z</time>
			</trkpt>
		
			<trkpt lat="49.51476" lon="-1.80655">
			 <ele>120</ele>
			<time>2015-11-19T13:31:13Z</time>
			</trkpt>
		
			<trkpt lat="49.5144" lon="-1.80681">
			 <ele>122</ele>
			<time>2015-11-19T13:33:13Z</time>
			</trkpt>
		
				</trkseg>
			   </trk>
			 </gpx>
	